{"type":"FeatureCollection","features":[{"type":"Feature","properties":{"name":null,"slip_type":"Subduction_Thrust","average_dip":null,"net_slip_rate":null,"activity_confidence":null,"catalog_id":"ATA_1"},"geometry":{"type":"LineString","coordinates":[[-63.978,12.2649],[-64.3582,12.3304],[-64.9874,12.4222],[-65.7084,12.4746],[-66.1672,12.6319],[-66.7702,12.9203],[-67.4518,13.3267]]}},{"type":"Feature","properties":{"name":null,"slip_type":"Subduction_Thrust","average_dip":null,"net_slip_rate":null,"activity_confidence":null,"catalog_id":"ATA_1"},"geometry":{"type":"LineString","coordinates":[[-67.5567,13.3923],[-68.2646,13.484],[-68.8938,13.5889],[-70.5848,13.7462],[-72.1448,13.6806],[-72.9313,13.6282],[-73.3901,13.3529],[-73.7179,12.9024],[-74.0586,12.5271]]}},{"type":"Feature","properties":{"name":null,"slip_type":"Reverse","average_dip":null,"net_slip_rate":null,"activity_confidence":null,"catalog_id":"ATA_2"},"geometry":{"type":"LineString","coordinates":[[-73.9122,12.3723],[-74.2303,12.3016],[-74.4247,12.0366]]}},{"type":"Feature","properties":{"name":null,"slip_type":"Reverse","average_dip":null,"net_slip_rate":null,"activity_confidence":null,"catalog_id":"ATA_3"},"geometry":{"type":"LineString","coordinates":[[-74.5837,11.9482],[-74.8488,11.8952],[-75.0254,11.7362]]}},{"type":"Feature","properties":{"name":null,"slip_type":"Reverse","average_dip":null,"net_slip_rate":null,"activity_confidence":null,"catalog_id":"ATA_4"},"geometry":{"type":"LineString","coordinates":[[-75.0608,11.7716],[-75.5555,11.6479],[-75.7676,11.4535],[-76.1287,11.0283]]}},{"type":"Feature","properties":{"name":null,"slip_type":"Reverse","average_dip":null,"net_slip_rate":null,"activity_confidence":null,"catalog_id":"ATA_13"},"geometry":{"type":"LineString","coordinates":[[-74.4335,6.8152],[-74.3787,6.8919],[-74.2581,7.0089],[-74.1996,7.0527],[-74.1155,7.1733],[-74.0351,7.2391],[-73.984,7.3378]]}},{"type":"Feature","properties":{"name":null,"slip_type":"Reverse","average_dip":null,"net_slip_rate":null,"activity_confidence":null,"catalog_id":"ATA_14"},"geometry":{"type":"LineString","coordinates":[[-74.6244,6.542],[-74.5833,6.6078],[-74.4764,6.7284],[-74.4353,6.7914]]}},{"type":"Feature","properties":{"name":null,"slip_type":"Dextral","average_dip":null,"net_slip_rate":null,"activity_confidence":null,"catalog_id":"ATA_23"},"geometry":{"type":"LineString","coordinates":[[-74.8075,3.0189],[-74.678,3.1103],[-74.604,3.1404]]}},{"type":"Feature","properties":{"name":"GUAYAQUIL ALGECIRAS FAULT SYSTEM","slip_type":"Dextral","average_dip":null,"net_slip_rate":null,"activity_confidence":null,"catalog_id":"ATA_25"},"geometry":{"type":"LineString","coordinates":[[-74.3764,3.2807],[-74.1874,3.3552]]}},{"type":"Feature","properties":{"name":null,"slip_type":"Dextral","average_dip":null,"net_slip_rate":null,"activity_confidence":null,"catalog_id":"ATA_26"},"geometry":{"type":"LineString","coordinates":[[-74.242,3.3466],[-74.2194,3.3656],[-74.0807,3.4341],[-74.0044,3.4992]]}},{"type":"Feature","properties":{"name":null,"slip_type":"Reverse","average_dip":null,"net_slip_rate":null,"activity_confidence":null,"catalog_id":"ATA_27"},"geometry":{"type":"LineString","coordinates":[[-73.8847,3.1749],[-73.8726,3.2538]]}},{"type":"Feature","properties":{"name":null,"slip_type":"Reverse","average_dip":null,"net_slip_rate":null,"activity_confidence":null,"catalog_id":"ATA_28"},"geometry":{"type":"LineString","coordinates":[[-73.8864,3.2598],[-73.9003,3.2754],[-73.9229,3.3318],[-73.9688,3.3899]]}},{"type":"Feature","properties":{"name":"LA_MACARENA_FAULT","slip_type":"Reverse","average_dip":null,"net_slip_rate":null,"activity_confidence":null,"catalog_id":"ATA_29"},"geometry":{"type":"LineString","coordinates":[[-73.7948,2.8112],[-73.801,2.8497],[-73.8395,2.9083],[-73.8395,3.0224],[-73.8503,3.1149],[-73.8781,3.155]]}},{"type":"Feature","properties":{"name":"LA_MACARENA_FAULT","slip_type":"Reverse","average_dip":null,"net_slip_rate":null,"activity_confidence":null,"catalog_id":"ATA_30"},"geometry":{"type":"LineString","coordinates":[[-73.858,2.6771],[-73.8673,2.62],[-73.8966,2.5584],[-73.8889,2.5244],[-73.9058,2.489],[-73.9151,2.4443],[-73.9197,2.3795],[-73.8981,2.2377]]}},{"type":"Feature","properties":{"name":null,"slip_type":"Reverse","average_dip":null,"net_slip_rate":null,"activity_confidence":null,"catalog_id":"ATA_37"},"geometry":{"type":"LineString","coordinates":[[-73.7091,4.1814],[-73.6429,4.2379]]}},{"type":"Feature","properties":{"name":null,"slip_type":"Reverse","average_dip":null,"net_slip_rate":null,"activity_confidence":null,"catalog_id":"ATA_40"},"geometry":{"type":"LineString","coordinates":[[-72.8945,4.7329],[-72.8651,4.8151],[-72.8236,4.8894],[-72.8133,4.9632]]}},{"type":"Feature","properties":{"name":null,"slip_type":"Reverse","average_dip":null,"net_slip_rate":null,"activity_confidence":null,"catalog_id":"ATA_49"},"geometry":{"type":"LineString","coordinates":[[-72.7369,6.5629],[-72.7241,6.5772],[-72.7076,6.6227],[-72.7095,6.7107],[-72.6918,6.7657],[-72.6974,6.8337],[-72.6888,6.862],[-72.7053,6.8906],[-72.705,6.9154],[-72.6865,6.9669],[-72.6865,7.0008],[-72.676,7.0106],[-72.6764,7.0328]]}},{"type":"Feature","properties":{"name":null,"slip_type":"Reverse","average_dip":null,"net_slip_rate":null,"activity_confidence":null,"catalog_id":"ATA_50"},"geometry":{"type":"LineString","coordinates":[[-73.8504,3.7826],[-73.8263,3.8593],[-73.8101,3.9556],[-73.7939,3.9797],[-73.7879,4.0158],[-73.7637,4.0495],[-73.7419,4.0544],[-73.7064,4.0846],[-73.6829,4.0819],[-73.6592,4.0996],[-73.6541,4.1299]]}},{"type":"Feature","properties":{"name":"SERVITA_FAULT","slip_type":"Reverse","average_dip":null,"net_slip_rate":null,"activity_confidence":null,"catalog_id":"ATA_51"},"geometry":{"type":"LineString","coordinates":[[-73.6971,4.0818],[-73.6712,4.1074],[-73.6285,4.1755],[-73.5923,4.1982],[-73.5789,4.2392],[-73.5849,4.2828],[-73.525,4.3168]]}},{"type":"Feature","properties":{"name":"SERVITA_FAULT","slip_type":"Reverse","average_dip":null,"net_slip_rate":null,"activity_confidence":null,"catalog_id":"ATA_52"},"geometry":{"type":"LineString","coordinates":[[-73.524,4.3205],[-73.5218,4.3465],[-73.5086,4.3536],[-73.4802,4.4019],[-73.4548,4.425],[-73.4466,4.4698],[-73.4151,4.5229],[-73.4134,4.5419],[-73.3897,4.5613],[-73.3505,4.6246]]}},{"type":"Feature","properties":{"name":null,"slip_type":"Reverse","average_dip":null,"net_slip_rate":null,"activity_confidence":null,"catalog_id":"ATA_53"},"geometry":{"type":"LineString","coordinates":[[-73.4377,4.4858],[-73.4289,4.5321],[-73.3765,4.6426]]}},{"type":"Feature","properties":{"name":"SERVITA_FAULT","slip_type":"Reverse","average_dip":null,"net_slip_rate":null,"activity_confidence":null,"catalog_id":"ATA_54"},"geometry":{"type":"LineString","coordinates":[[-73.3999,4.5932],[-73.3898,4.6748],[-73.3594,4.7223],[-73.313,4.7584],[-73.3089,4.783],[-73.2655,4.8609],[-73.2397,4.8905]]}},{"type":"Feature","properties":{"name":null,"slip_type":"Reverse","average_dip":null,"net_slip_rate":null,"activity_confidence":null,"catalog_id":"ATA_55"},"geometry":{"type":"LineString","coordinates":[[-73.2131,4.9063],[-73.1767,4.9418],[-73.1662,4.9877],[-73.1094,5.0094],[-73.1049,5.0256],[-73.0743,5.0631],[-73.0715,5.0928]]}},{"type":"Feature","properties":{"name":null,"slip_type":"Reverse","average_dip":null,"net_slip_rate":null,"activity_confidence":null,"catalog_id":"ATA_56"},"geometry":{"type":"LineString","coordinates":[[-73.0477,5.0633],[-73.0143,5.1205],[-72.9884,5.1483],[-72.9665,5.1563],[-72.9346,5.1935]]}},{"type":"Feature","properties":{"name":null,"slip_type":"Reverse","average_dip":null,"net_slip_rate":null,"activity_confidence":null,"catalog_id":"ATA_57"},"geometry":{"type":"LineString","coordinates":[[-72.7151,5.2332],[-72.698,5.2624],[-72.7035,5.2979],[-72.6836,5.3524],[-72.6851,5.3696]]}},{"type":"Feature","properties":{"name":null,"slip_type":"Reverse","average_dip":null,"net_slip_rate":null,"activity_confidence":null,"catalog_id":"ATA_58"},"geometry":{"type":"LineString","coordinates":[[-72.6848,5.3362],[-72.6609,5.3466],[-72.6348,5.3763],[-72.6011,5.3975],[-72.5791,5.4313],[-72.5423,5.454],[-72.5197,5.4817],[-72.4,5.5791]]}},{"type":"Feature","properties":{"name":"SANTA MARTA- BUCARAMANGA FAULT","slip_type":"Sinistral","average_dip":null,"net_slip_rate":"(7.6,0.2,15)","activity_confidence":null,"catalog_id":"ATA_59"},"geometry":{"type":"LineString","coordinates":[[-73.1313,7.2012],[-73.2423,7.5996]]}},{"type":"Feature","properties":{"name":"SANTA MARTA- BUCARAMANGA FAULT","slip_type":"Sinistral","average_dip":null,"net_slip_rate":"(7.6,0.2,15)","activity_confidence":null,"catalog_id":"ATA_59"},"geometry":{"type":"LineString","coordinates":[[-73.3112,7.7949],[-73.3332,7.8341]]}},{"type":"Feature","properties":{"name":"SANTA MARTA- BUCARAMANGA FAULT","slip_type":"Sinistral","average_dip":null,"net_slip_rate":"(7.6,0.2,15)","activity_confidence":null,"catalog_id":"ATA_59"},"geometry":{"type":"LineString","coordinates":[[-73.3442,7.8349],[-73.3614,7.8713]]}},{"type":"Feature","properties":{"name":"SANTA MARTA- BUCARAMANGA FAULT","slip_type":"Sinistral","average_dip":null,"net_slip_rate":"(7.6,0.2,15)","activity_confidence":null,"catalog_id":"ATA_59"},"geometry":{"type":"LineString","coordinates":[[-74.0851,10.7368],[-74.1454,10.9397],[-74.2221,11.1288],[-74.2359,11.2466]]}},{"type":"Feature","properties":{"name":"ALTO DEL TRIGO FAULT","slip_type":"Reverse","average_dip":null,"net_slip_rate":null,"activity_confidence":null,"catalog_id":"ATA_61"},"geometry":{"type":"LineString","coordinates":[[-74.4926,5.3165],[-74.5037,5.2077],[-74.4785,5.195],[-74.5047,5.1263],[-74.4968,5.0982],[-74.4983,5.0647],[-74.5081,5.0411],[-74.5012,5.0293]]}},{"type":"Feature","properties":{"name":"ALTO DEL TRIGO FAULT","slip_type":"Reverse","average_dip":null,"net_slip_rate":null,"activity_confidence":null,"catalog_id":"ATA_61"},"geometry":{"type":"LineString","coordinates":[[-74.3095,5.648],[-74.3111,5.6302],[-74.3511,5.5779],[-74.3693,5.4977],[-74.3903,5.4641],[-74.4129,5.4483],[-74.4386,5.402],[-74.4633,5.3848],[-74.4932,5.3161]]}},{"type":"Feature","properties":{"name":"ALTO DEL TRIGO FAULT","slip_type":"Reverse","average_dip":null,"net_slip_rate":null,"activity_confidence":null,"catalog_id":"ATA_61"},"geometry":{"type":"LineString","coordinates":[[-74.2206,5.7149],[-74.246,5.7119],[-74.2784,5.6912],[-74.2911,5.6637],[-74.3087,5.6494]]}},{"type":"Feature","properties":{"name":"ALTO DEL TRIGO FAULT","slip_type":"Reverse","average_dip":null,"net_slip_rate":null,"activity_confidence":null,"catalog_id":"ATA_61"},"geometry":{"type":"LineString","coordinates":[[-74.0465,5.8774],[-74.0476,5.8646],[-74.0986,5.8396],[-74.1504,5.7761],[-74.1708,5.7619],[-74.1708,5.7502],[-74.2209,5.715]]}},{"type":"Feature","properties":{"name":"ALTO DEL TRIGO FAULT","slip_type":"Reverse","average_dip":null,"net_slip_rate":null,"activity_confidence":null,"catalog_id":"ATA_61"},"geometry":{"type":"LineString","coordinates":[[-73.7997,6.2145],[-73.8573,6.1769],[-73.8698,6.1585],[-73.9194,6.1334],[-73.9525,6.0929],[-73.9585,6.073],[-73.9818,6.0544],[-73.9821,6.0149],[-74.0489,5.8777]]}},{"type":"Feature","properties":{"name":null,"slip_type":"Reverse","average_dip":null,"net_slip_rate":null,"activity_confidence":null,"catalog_id":"ATA_63"},"geometry":{"type":"LineString","coordinates":[[-71.9666,6.2365],[-71.9482,6.2577],[-71.9328,6.3017],[-71.8955,6.3534],[-71.8897,6.3826]]}},{"type":"Feature","properties":{"name":null,"slip_type":"Reverse","average_dip":null,"net_slip_rate":null,"activity_confidence":null,"catalog_id":"ATA_64"},"geometry":{"type":"LineString","coordinates":[[-71.984,6.3647],[-71.9536,6.3744],[-71.9404,6.3878],[-71.9196,6.4251],[-71.8946,6.4404],[-71.8889,6.4737]]}},{"type":"Feature","properties":{"name":"MORRONEGRO_FAULT","slip_type":"Sinistral","average_dip":null,"net_slip_rate":null,"activity_confidence":null,"catalog_id":"ATA_66"},"geometry":{"type":"LineString","coordinates":[[-72.3041,6.7283],[-72.3698,6.7784],[-72.5325,6.9443],[-72.5983,6.985],[-72.6515,7.0789]]}},{"type":"Feature","properties":{"name":"PERIJA EL TIGRE FAULT SYSTEM","slip_type":"Reverse","average_dip":null,"net_slip_rate":null,"activity_confidence":null,"catalog_id":"ATA_71"},"geometry":{"type":"LineString","coordinates":[[-72.7634,9.8708],[-72.6718,10.0026],[-72.6182,10.0607],[-72.5735,10.1501],[-72.5579,10.226]]}},{"type":"Feature","properties":{"name":"PERIJA EL TIGRE FAULT SYSTEM","slip_type":"Reverse","average_dip":null,"net_slip_rate":null,"activity_confidence":null,"catalog_id":"ATA_72"},"geometry":{"type":"LineString","coordinates":[[-72.5311,10.2752],[-72.5065,10.3198],[-72.4507,10.3645],[-72.4283,10.4673],[-72.3881,10.5365],[-72.3903,10.6058],[-72.3635,10.6236],[-72.2965,10.6303],[-72.2719,10.6661],[-72.2608,10.7979],[-72.1714,10.9074]]}},{"type":"Feature","properties":{"name":null,"slip_type":"Dextral","average_dip":null,"net_slip_rate":null,"activity_confidence":null,"catalog_id":"ATA_74"},"geometry":{"type":"LineString","coordinates":[[-69.8069,10.91],[-69.6327,10.9413],[-69.5433,10.9703],[-69.4562,11.0128]]}},{"type":"Feature","properties":{"name":null,"slip_type":"Dextral","average_dip":null,"net_slip_rate":null,"activity_confidence":null,"catalog_id":"ATA_76"},"geometry":{"type":"LineString","coordinates":[[-72.5919,7.8328],[-72.5556,7.8573],[-72.4663,7.9634],[-72.4261,7.9835],[-72.2831,7.9858],[-72.2362,8.0952],[-72.1932,8.1307],[-72.0114,8.1589],[-71.9405,8.2239],[-71.8921,8.3039],[-71.8536,8.3492],[-71.7932,8.3749],[-71.7479,8.4134]]}},{"type":"Feature","properties":{"name":"SAN JACINTO FAULT","slip_type":"Reverse","average_dip":null,"net_slip_rate":null,"activity_confidence":null,"catalog_id":"ATA_77"},"geometry":{"type":"LineString","coordinates":[[-76.0615,1.9505],[-75.9915,2.0025],[-75.9295,2.0905],[-75.8955,2.1205],[-75.8415,2.2285],[-75.7955,2.2745]]}},{"type":"Feature","properties":{"name":"CHUSMA_FAULT","slip_type":"Reverse","average_dip":null,"net_slip_rate":null,"activity_confidence":null,"catalog_id":"ATA_78"},"geometry":{"type":"LineString","coordinates":[[-76.056,2.157],[-75.951,2.271],[-75.93,2.3355],[-75.858,2.4255],[-75.8235,2.4855],[-75.819,2.5575]]}},{"type":"Feature","properties":{"name":"CHUSMA FAULT","slip_type":"Dextral","average_dip":null,"net_slip_rate":null,"activity_confidence":null,"catalog_id":"ATA_79"},"geometry":{"type":"LineString","coordinates":[[-75.8205,2.559],[-75.5655,2.6775]]}},{"type":"Feature","properties":{"name":"CHUSMA_FAULT","slip_type":"Reverse","average_dip":null,"net_slip_rate":null,"activity_confidence":null,"catalog_id":"ATA_80"},"geometry":{"type":"LineString","coordinates":[[-75.57,2.6835],[-75.507,2.8215],[-75.513,2.841],[-75.4545,2.9025],[-75.4355,2.943],[-75.4178,3.0974],[-75.3697,3.2231],[-75.3114,3.2771],[-75.2709,3.294],[-75.2566,3.3607],[-75.2271,3.4138],[-75.1891,3.4585]]}},{"type":"Feature","properties":{"name":null,"slip_type":"Sinistral","average_dip":null,"net_slip_rate":null,"activity_confidence":null,"catalog_id":"ATA_81"},"geometry":{"type":"LineString","coordinates":[[-74.9872,4.8226],[-74.9571,4.7829],[-74.9418,4.7386]]}},{"type":"Feature","properties":{"name":"GUAYAQUIL ALGECIRAS FAULT SYSTEM","slip_type":"Dextral","average_dip":null,"net_slip_rate":null,"activity_confidence":null,"catalog_id":"ATA_82"},"geometry":{"type":"LineString","coordinates":[[-73.7556,3.4681],[-73.4457,3.6954],[-73.146,3.9331],[-72.9084,4.181],[-72.3402,4.3773],[-71.7926,4.5427],[-71.1623,4.8733],[-70.5631,5.2969],[-69.7882,5.8238],[-69.127,6.1751],[-68.3727,6.702]]}},{"type":"Feature","properties":{"name":"TORO FAULT","slip_type":"Reverse","average_dip":null,"net_slip_rate":null,"activity_confidence":null,"catalog_id":"ATA_85"},"geometry":{"type":"LineString","coordinates":[[-76.0661,4.6075],[-75.9839,4.7592],[-75.9207,4.9488],[-75.9207,5.1322],[-75.9017,5.2839],[-75.8069,5.4609]]}},{"type":"Feature","properties":{"name":null,"slip_type":"Reverse","average_dip":null,"net_slip_rate":null,"activity_confidence":null,"catalog_id":"ATA_86"},"geometry":{"type":"LineString","coordinates":[[-74.5715,2.4042],[-74.5289,2.4931],[-74.4577,2.5855],[-74.4435,2.71],[-74.4755,2.87],[-74.4826,2.9553],[-74.4684,3.0478],[-74.4933,3.0727]]}},{"type":"Feature","properties":{"name":null,"slip_type":"Reverse","average_dip":null,"net_slip_rate":null,"activity_confidence":null,"catalog_id":"ATA_87"},"geometry":{"type":"LineString","coordinates":[[-74.7813,2.2229],[-74.7137,2.3224],[-74.6924,2.39],[-74.6213,2.5038],[-74.6213,2.5713]]}},{"type":"Feature","properties":{"name":null,"slip_type":"Reverse","average_dip":null,"net_slip_rate":null,"activity_confidence":null,"catalog_id":"ATA_88"},"geometry":{"type":"LineString","coordinates":[[-74.9504,2.0582],[-74.9064,2.2102],[-74.8524,2.2922],[-74.8384,2.3322],[-74.8084,2.3702],[-74.7744,2.3922],[-74.7544,2.4302],[-74.7664,2.4722],[-74.7584,2.5102],[-74.7684,2.5322]]}},{"type":"Feature","properties":{"name":"MOCOA_FAULT","slip_type":"Reverse","average_dip":null,"net_slip_rate":null,"activity_confidence":null,"catalog_id":"ATA_89"},"geometry":{"type":"LineString","coordinates":[[-76.0054,1.2407],[-75.9784,1.2827],[-75.9664,1.3247],[-75.9124,1.3607],[-75.8674,1.4252],[-75.7354,1.4897],[-75.6844,1.5527],[-75.6529,1.5677]]}},{"type":"Feature","properties":{"name":"IBAGUE_FAULT","slip_type":"Dextral","average_dip":null,"net_slip_rate":"(0.5,,)","activity_confidence":null,"catalog_id":"ATA_93"},"geometry":{"type":"LineString","coordinates":[[-75.8979,3.7658],[-75.7596,3.927],[-75.6557,3.9802],[-75.5771,4.0129],[-75.5331,4.0119],[-75.4631,4.0261],[-75.3564,4.0912],[-75.1959,4.1086]]}},{"type":"Feature","properties":{"name":"ROMERAL FAULT","slip_type":"Reverse","average_dip":null,"net_slip_rate":null,"activity_confidence":null,"catalog_id":"ATA_94"},"geometry":{"type":"LineString","coordinates":[[-75.8261,5.1613],[-75.8421,5.0873],[-75.8601,4.9273],[-75.8825,4.8798],[-75.892,4.766],[-75.9251,4.6522],[-76.0294,4.51]]}},{"type":"Feature","properties":{"name":null,"slip_type":"Reverse","average_dip":null,"net_slip_rate":null,"activity_confidence":null,"catalog_id":"ATA_97"},"geometry":{"type":"LineString","coordinates":[[-74.6784,6.0469],[-74.6428,6.1322],[-74.6144,6.2282],[-74.5646,6.31],[-74.4651,6.5091],[-74.4295,6.6015],[-74.3762,6.8078],[-74.3299,6.8931]]}},{"type":"Feature","properties":{"name":"ROMERAL_FAULT","slip_type":"Reverse","average_dip":null,"net_slip_rate":null,"activity_confidence":null,"catalog_id":"ATA_99"},"geometry":{"type":"LineString","coordinates":[[-75.6167,7.193],[-75.7115,7.0934],[-75.7921,7.027],[-75.8585,6.7663],[-75.8206,6.6241],[-75.74,6.4724],[-75.6689,6.278],[-75.612,6.0931],[-75.5361,5.9129],[-75.4887,5.6332],[-75.4934,5.4246],[-75.5456,5.235],[-75.5598,5.0928],[-75.5883,4.979],[-75.6072,4.8605]]}},{"type":"Feature","properties":{"name":null,"slip_type":"Reverse","average_dip":null,"net_slip_rate":null,"activity_confidence":null,"catalog_id":"ATA_103"},"geometry":{"type":"LineString","coordinates":[[-72.6658,7.3926],[-72.6804,7.3259],[-72.6846,7.2508],[-72.6575,7.1382],[-72.6346,7.0777],[-72.6054,7.0318]]}},{"type":"Feature","properties":{"name":null,"slip_type":"Reverse","average_dip":null,"net_slip_rate":null,"activity_confidence":null,"catalog_id":"ATA_104"},"geometry":{"type":"LineString","coordinates":[[-71.8583,6.8035],[-71.9334,6.9425],[-71.9306,7.0259],[-71.8778,7.1288],[-71.9001,7.254],[-71.8806,7.3763],[-71.8027,7.4903],[-71.7026,7.5487],[-71.5664,7.6127],[-71.4968,7.6822]]}},{"type":"Feature","properties":{"name":null,"slip_type":"Reverse","average_dip":null,"net_slip_rate":null,"activity_confidence":null,"catalog_id":"ATA_105"},"geometry":{"type":"LineString","coordinates":[[-71.583,7.524],[-71.5455,7.551],[-71.4857,7.6167],[-71.4458,7.6296],[-71.3437,7.6226],[-71.3015,7.6449],[-71.2006,7.7634],[-71.1619,7.822],[-71.1126,7.8572],[-70.9284,8.0602],[-70.8944,8.1071],[-70.831,8.2291]]}},{"type":"Feature","properties":{"name":null,"slip_type":"Reverse","average_dip":null,"net_slip_rate":null,"activity_confidence":null,"catalog_id":"ATA_106"},"geometry":{"type":"LineString","coordinates":[[-71.4939,7.6859],[-71.461,7.7082],[-71.3554,7.7434],[-71.2323,7.8044],[-71.1443,7.8642],[-71.068,7.9417],[-70.9836,8.0085]]}},{"type":"Feature","properties":{"name":null,"slip_type":"Reverse","average_dip":null,"net_slip_rate":null,"activity_confidence":null,"catalog_id":"ATA_107"},"geometry":{"type":"LineString","coordinates":[[-72.6312,7.8601],[-72.64,7.934],[-72.6373,7.9938],[-72.6285,8.0281],[-72.5933,8.0739],[-72.5749,8.1434],[-72.5819,8.1566],[-72.5687,8.1971],[-72.5485,8.2147],[-72.5344,8.2437],[-72.5177,8.3035],[-72.5229,8.3291],[-72.5027,8.3942],[-72.5098,8.5411],[-72.5018,8.5957],[-72.4886,8.6203]]}},{"type":"Feature","properties":{"name":"GARRAPATAS_FAULT","slip_type":"Dextral","average_dip":null,"net_slip_rate":null,"activity_confidence":null,"catalog_id":"ATA_116"},"geometry":{"type":"LineString","coordinates":[[-76.0176,4.7749],[-75.982,4.8257]]}},{"type":"Feature","properties":{"name":null,"slip_type":"Sinistral","average_dip":null,"net_slip_rate":null,"activity_confidence":null,"catalog_id":"ATA_169"},"geometry":{"type":"LineString","coordinates":[[-74.8568,5.906],[-74.8717,5.8667],[-74.9082,5.8236]]}},{"type":"Feature","properties":{"name":null,"slip_type":"Reverse","average_dip":null,"net_slip_rate":null,"activity_confidence":null,"catalog_id":"ATA_177"},"geometry":{"type":"LineString","coordinates":[[-75.2568,4.0623],[-75.2126,4.0851],[-75.1919,4.1072]]}},{"type":"Feature","properties":{"name":null,"slip_type":"Reverse","average_dip":null,"net_slip_rate":null,"activity_confidence":null,"catalog_id":"ATA_178"},"geometry":{"type":"LineString","coordinates":[[-75.2137,4.1051],[-75.1722,4.1393],[-75.1481,4.1828]]}},{"type":"Feature","properties":{"name":null,"slip_type":"Reverse","average_dip":null,"net_slip_rate":null,"activity_confidence":null,"catalog_id":"ATA_179"},"geometry":{"type":"LineString","coordinates":[[-75.1474,4.1673],[-75.1066,4.2318]]}},{"type":"Feature","properties":{"name":null,"slip_type":"Reverse","average_dip":null,"net_slip_rate":null,"activity_confidence":null,"catalog_id":"ATA_180"},"geometry":{"type":"LineString","coordinates":[[-75.1457,4.1134],[-75.1059,4.1486],[-75.0835,4.2263]]}},{"type":"Feature","properties":{"name":null,"slip_type":"Reverse","average_dip":null,"net_slip_rate":null,"activity_confidence":null,"catalog_id":"ATA_181"},"geometry":{"type":"LineString","coordinates":[[-75.1011,4.1345],[-75.0818,4.1652],[-75.0718,4.2066]]}},{"type":"Feature","properties":{"name":null,"slip_type":"Reverse","average_dip":null,"net_slip_rate":null,"activity_confidence":null,"catalog_id":"ATA_182"},"geometry":{"type":"LineString","coordinates":[[-75.0825,4.1363],[-75.0348,4.2155],[-75.0053,4.2303],[-74.9975,4.2468]]}},{"type":"Feature","properties":{"name":"HONDA FAULT","slip_type":"Reverse","average_dip":null,"net_slip_rate":null,"activity_confidence":null,"catalog_id":"ATA_185"},"geometry":{"type":"LineString","coordinates":[[-74.5574,5.5229],[-74.5846,5.4738],[-74.5898,5.43],[-74.66,5.2722],[-74.7153,5.0973],[-74.7281,5.037],[-74.724,4.9979],[-74.7387,4.9633],[-74.7235,4.9178],[-74.7419,4.8542],[-74.7337,4.8239],[-74.7392,4.8008]]}},{"type":"Feature","properties":{"name":null,"slip_type":"Reverse","average_dip":null,"net_slip_rate":null,"activity_confidence":null,"catalog_id":"ATA_186"},"geometry":{"type":"LineString","coordinates":[[-73.9572,6.5701],[-73.9823,6.4998],[-74.0414,6.4202],[-74.0737,6.3837],[-74.1584,6.3406]]}},{"type":"Feature","properties":{"name":null,"slip_type":"Reverse","average_dip":null,"net_slip_rate":null,"activity_confidence":null,"catalog_id":"ATA_187"},"geometry":{"type":"LineString","coordinates":[[-74.1615,6.3889],[-74.1912,6.3796],[-74.221,6.3565],[-74.2723,6.2698],[-74.2924,6.202],[-74.3088,6.1943],[-74.3155,6.1784],[-74.3229,6.1043],[-74.333,6.0786]]}},{"type":"Feature","properties":{"name":"CIMITARRA FAULT","slip_type":"Reverse","average_dip":null,"net_slip_rate":null,"activity_confidence":null,"catalog_id":"ATA_188"},"geometry":{"type":"LineString","coordinates":[[-73.3869,6.9982],[-73.4081,6.9715],[-73.4738,6.9304],[-73.5122,6.8866],[-73.5464,6.8086],[-73.5703,6.7032],[-73.6189,6.6313],[-73.6388,6.6094],[-73.688,6.5875],[-73.7421,6.5109],[-73.7975,6.476],[-73.8393,6.3966],[-73.9084,6.3309]]}},{"type":"Feature","properties":{"name":null,"slip_type":"Dextral","average_dip":null,"net_slip_rate":null,"activity_confidence":null,"catalog_id":"ATA_189"},"geometry":{"type":"LineString","coordinates":[[-74.402,7.9629],[-74.3415,8.0344],[-74.2781,8.089],[-74.214,8.1613],[-74.166,8.19],[-74.0458,8.2977],[-73.9576,8.3606],[-73.9153,8.4158]]}},{"type":"Feature","properties":{"name":null,"slip_type":"Dextral","average_dip":null,"net_slip_rate":null,"activity_confidence":null,"catalog_id":"ATA_190"},"geometry":{"type":"LineString","coordinates":[[-74.2237,7.9894],[-74.1854,8.0308],[-74.122,8.0793],[-74.0722,8.14],[-74.0178,8.1886]]}},{"type":"Feature","properties":{"name":null,"slip_type":"Sinistral","average_dip":null,"net_slip_rate":null,"activity_confidence":null,"catalog_id":"ATA_191"},"geometry":{"type":"LineString","coordinates":[[-74.3172,7.9825],[-74.2525,8.038],[-74.1965,8.0737],[-74.1625,8.1173],[-74.0858,8.1703],[-74.0464,8.2263],[-73.9418,8.3198]]}},{"type":"Feature","properties":{"name":null,"slip_type":"Sinistral","average_dip":null,"net_slip_rate":null,"activity_confidence":null,"catalog_id":"ATA_192"},"geometry":{"type":"LineString","coordinates":[[-73.6303,8.4145],[-73.5889,8.352]]}},{"type":"Feature","properties":{"name":null,"slip_type":"Sinistral","average_dip":null,"net_slip_rate":null,"activity_confidence":null,"catalog_id":"ATA_193"},"geometry":{"type":"LineString","coordinates":[[-73.5845,8.3493],[-73.5656,8.3302],[-73.5417,8.2809]]}},{"type":"Feature","properties":{"name":null,"slip_type":"Sinistral","average_dip":null,"net_slip_rate":null,"activity_confidence":null,"catalog_id":"ATA_194"},"geometry":{"type":"LineString","coordinates":[[-73.5768,8.3514],[-73.5705,8.3409]]}},{"type":"Feature","properties":{"name":null,"slip_type":"Sinistral","average_dip":null,"net_slip_rate":null,"activity_confidence":null,"catalog_id":"ATA_195"},"geometry":{"type":"LineString","coordinates":[[-73.5658,8.3391],[-73.5417,8.2922]]}},{"type":"Feature","properties":{"name":null,"slip_type":"Sinistral","average_dip":null,"net_slip_rate":null,"activity_confidence":null,"catalog_id":"ATA_196"},"geometry":{"type":"LineString","coordinates":[[-73.5572,8.3297],[-73.5441,8.3078]]}},{"type":"Feature","properties":{"name":null,"slip_type":"Reverse","average_dip":null,"net_slip_rate":null,"activity_confidence":null,"catalog_id":"ATA_199"},"geometry":{"type":"LineString","coordinates":[[-72.4774,8.1607],[-72.5134,8.1422],[-72.5626,8.0764],[-72.5919,7.9644],[-72.5929,7.9043],[-72.626,7.8542],[-72.6485,7.8338],[-72.6715,7.7663],[-72.6617,7.697],[-72.6902,7.6507]]}},{"type":"Feature","properties":{"name":"PUERTO CABELLO FAULT","slip_type":"Sinistral","average_dip":null,"net_slip_rate":null,"activity_confidence":null,"catalog_id":"ATA_204"},"geometry":{"type":"LineString","coordinates":[[-68.6013,10.3486],[-68.4228,10.4197],[-68.2939,10.46],[-68.1946,10.4761],[-67.9999,10.4868],[-67.757,10.5365]]}},{"type":"Feature","properties":{"name":null,"slip_type":"Reverse","average_dip":null,"net_slip_rate":null,"activity_confidence":null,"catalog_id":"ATA_205"},"geometry":{"type":"LineString","coordinates":[[-68.5663,9.8099],[-68.4736,9.745],[-68.4121,9.7282],[-68.3405,9.7206],[-68.22,9.7467],[-68.1669,9.7501],[-68.0161,9.7374],[-67.9647,9.7467],[-67.8392,9.7121],[-67.7212,9.7543],[-67.6471,9.7576],[-67.5367,9.7913],[-67.4491,9.7888],[-67.417,9.7981],[-67.3985,9.8141],[-67.3859,9.8638],[-67.3673,9.8933],[-67.3378,9.9228],[-67.2966,9.9354],[-67.2418,9.9388],[-67.1244,9.9172]]}},{"type":"Feature","properties":{"name":null,"slip_type":"Reverse","average_dip":null,"net_slip_rate":null,"activity_confidence":null,"catalog_id":"ATA_206"},"geometry":{"type":"LineString","coordinates":[[-68.3842,9.5501],[-68.4366,9.5463],[-68.5017,9.5292],[-68.5921,9.5286]]}},{"type":"Feature","properties":{"name":"Audemard et al., 2000","slip_type":"Reverse","average_dip":null,"net_slip_rate":null,"activity_confidence":null,"catalog_id":"ATA_207"},"geometry":{"type":"LineString","coordinates":[[-67.6884,9.5773],[-67.744,9.6006],[-67.8432,9.595],[-67.9772,9.6051],[-68.1074,9.5987],[-68.1478,9.5836],[-68.2906,9.5709],[-68.4341,9.4799]]}},{"type":"Feature","properties":{"name":"MERIDA ANDES THRUS FRONT SYSTEM","slip_type":"Reverse","average_dip":null,"net_slip_rate":null,"activity_confidence":null,"catalog_id":"ATA_210"},"geometry":{"type":"LineString","coordinates":[[-67.9127,9.4256],[-67.8903,9.4169],[-67.7826,9.4299],[-67.7059,9.4712],[-67.6352,9.485],[-67.5025,9.4842],[-67.3965,9.4695],[-67.3103,9.4738],[-67.2569,9.4816],[-67.1604,9.5264],[-67.119,9.5307],[-67.1027,9.5092],[-67.0742,9.4902],[-67.0346,9.4842],[-66.9734,9.5178],[-66.926,9.5643],[-66.864,9.591],[-66.7993,9.6057],[-66.7545,9.6307]]}},{"type":"Feature","properties":{"name":"MERIDA ANDES THRUS FRONT SYSTEM","slip_type":"Reverse","average_dip":null,"net_slip_rate":null,"activity_confidence":null,"catalog_id":"ATA_210"},"geometry":{"type":"LineString","coordinates":[[-66.7521,9.6332],[-66.6961,9.6686],[-66.5323,9.7444],[-66.4419,9.8133],[-66.4212,9.8418],[-66.3936,9.8616],[-66.2549,9.9012],[-66.0696,9.9365],[-66.036,9.934],[-66.0196,9.9193],[-65.986,9.9116],[-65.9524,9.915],[-65.8654,9.9434],[-65.7887,9.9305],[-65.762,9.9469],[-65.7353,9.9503],[-65.6551,9.9055],[-65.6043,9.9004],[-65.4621,9.9512],[-65.4138,9.9452],[-65.3578,9.9641]]}},{"type":"Feature","properties":{"name":"MERIDA ANDES THRUS FRONT SYSTEM","slip_type":"Reverse","average_dip":null,"net_slip_rate":null,"activity_confidence":null,"catalog_id":"ATA_210"},"geometry":{"type":"LineString","coordinates":[[-65.4569,9.9667],[-65.3888,9.977],[-65.363,9.9874],[-65.3544,9.9995],[-65.3139,10.0029],[-65.2932,10.0184],[-65.2673,10.0236],[-65.2087,10.0236],[-65.1855,10.0132],[-65.1269,10.0063],[-65.0183,10.015]]}},{"type":"Feature","properties":{"name":"SOUTH MERIDA THRUST FRONT","slip_type":"Reverse","average_dip":null,"net_slip_rate":null,"activity_confidence":null,"catalog_id":"ATA_215"},"geometry":{"type":"LineString","coordinates":[[-64.1627,9.8885],[-64.125,9.8898],[-64.0481,9.9124],[-63.9248,9.925],[-63.7296,9.9918],[-63.6754,9.9993],[-63.5483,10.0648]]}},{"type":"Feature","properties":{"name":"CUMANA FAULT SYSTEM","slip_type":"Dextral","average_dip":null,"net_slip_rate":null,"activity_confidence":null,"catalog_id":"ATA_216"},"geometry":{"type":"LineString","coordinates":[[-63.892,10.2058],[-63.8265,10.1819],[-63.7296,10.1227],[-63.62,10.0849],[-63.3279,10.0484],[-63.1932,10.0472]]}},{"type":"Feature","properties":{"name":null,"slip_type":"Normal","average_dip":null,"net_slip_rate":null,"activity_confidence":null,"catalog_id":"ATA_217"},"geometry":{"type":"LineString","coordinates":[[-63.9482,10.307],[-63.9404,10.2957],[-63.9546,10.261],[-63.9503,10.2475],[-63.9333,10.2241],[-63.8972,10.2107]]}},{"type":"Feature","properties":{"name":null,"slip_type":"Normal","average_dip":null,"net_slip_rate":null,"activity_confidence":null,"catalog_id":"ATA_218"},"geometry":{"type":"LineString","coordinates":[[-63.9008,10.2149],[-63.8979,10.2454],[-63.944,10.3098]]}},{"type":"Feature","properties":{"name":null,"slip_type":"Normal","average_dip":null,"net_slip_rate":null,"activity_confidence":null,"catalog_id":"ATA_219"},"geometry":{"type":"LineString","coordinates":[[-63.9061,10.2412],[-63.9101,10.2301],[-63.9033,10.2157]]}},{"type":"Feature","properties":{"name":null,"slip_type":"Normal","average_dip":null,"net_slip_rate":null,"activity_confidence":null,"catalog_id":"ATA_220"},"geometry":{"type":"LineString","coordinates":[[-63.9396,10.2735],[-63.9352,10.2448]]}},{"type":"Feature","properties":{"name":"CUMANA FAULT SYSTEM","slip_type":"Dextral","average_dip":null,"net_slip_rate":null,"activity_confidence":null,"catalog_id":"ATA_221"},"geometry":{"type":"LineString","coordinates":[[-63.9456,10.3103],[-63.9995,10.3309],[-64.1376,10.3443],[-64.224,10.3642],[-64.3408,10.4229]]}},{"type":"Feature","properties":{"name":null,"slip_type":"Dextral","average_dip":null,"net_slip_rate":null,"activity_confidence":null,"catalog_id":"ATA_222"},"geometry":{"type":"LineString","coordinates":[[-64.6945,10.0946],[-64.6579,10.0526],[-64.6271,10.0335],[-64.5474,10.0075],[-64.4805,9.9953],[-64.3749,9.954]]}},{"type":"Feature","properties":{"name":null,"slip_type":"Reverse","average_dip":null,"net_slip_rate":null,"activity_confidence":null,"catalog_id":"ATA_223"},"geometry":{"type":"LineString","coordinates":[[-64.3371,9.9411],[-64.3307,9.9087],[-64.2446,9.8933]]}},{"type":"Feature","properties":{"name":null,"slip_type":"Reverse","average_dip":null,"net_slip_rate":null,"activity_confidence":null,"catalog_id":"ATA_223"},"geometry":{"type":"LineString","coordinates":[[-64.6558,10.0171],[-64.625,9.9926],[-64.5782,9.9746],[-64.4555,9.9512],[-64.3641,9.9491],[-64.3381,9.9406]]}},{"type":"Feature","properties":{"name":"CAMPEARITO FAULT SYSTEM","slip_type":"Normal","average_dip":null,"net_slip_rate":null,"activity_confidence":null,"catalog_id":"ATA_225"},"geometry":{"type":"LineString","coordinates":[[-63.3759,10.3593],[-63.3382,10.3395],[-63.3212,10.3423],[-63.2966,10.3178],[-63.2296,10.2904],[-63.1937,10.2195],[-63.0955,10.1837],[-63.0341,10.1355],[-62.9822,10.1194],[-62.9227,10.0845]]}},{"type":"Feature","properties":{"name":"CAMPEARITO FAULT SYSTEM","slip_type":"Normal","average_dip":null,"net_slip_rate":null,"activity_confidence":null,"catalog_id":"ATA_226"},"geometry":{"type":"LineString","coordinates":[[-62.8953,10.0486],[-62.9179,10.1232],[-62.9548,10.143],[-62.968,10.1591],[-63.0152,10.178],[-63.0398,10.2007],[-63.0804,10.2195],[-63.0917,10.2488],[-63.1134,10.2677],[-63.1021,10.3102]]}},{"type":"Feature","properties":{"name":"CAMPEARITO FAULT SYSTEM","slip_type":"Normal","average_dip":null,"net_slip_rate":null,"activity_confidence":null,"catalog_id":"ATA_227"},"geometry":{"type":"LineString","coordinates":[[-63.0435,10.3095],[-63.0867,10.3215],[-63.1569,10.3718],[-63.2659,10.3924],[-63.307,10.4086],[-63.353,10.4122]]}},{"type":"Feature","properties":{"name":null,"slip_type":"Reverse","average_dip":null,"net_slip_rate":null,"activity_confidence":null,"catalog_id":"ATA_228"},"geometry":{"type":"LineString","coordinates":[[-63.3729,10.0616],[-63.3226,10.0843],[-63.2835,10.0918],[-63.2458,10.0843],[-63.1979,10.0918],[-63.1702,10.1195],[-63.1425,10.1308],[-63.0745,10.1397],[-63.0632,10.1548]]}},{"type":"Feature","properties":{"name":null,"slip_type":"Reverse","average_dip":null,"net_slip_rate":null,"activity_confidence":null,"catalog_id":"ATA_232"},"geometry":{"type":"LineString","coordinates":[[-70.8904,9.9037],[-70.882,9.8668],[-70.8619,9.8299],[-70.7695,9.7375],[-70.7494,9.704],[-70.7192,9.6754],[-70.7192,9.6015],[-70.6906,9.5579],[-70.6604,9.5461]]}},{"type":"Feature","properties":{"name":"VENADO FAULT","slip_type":"Reverse","average_dip":null,"net_slip_rate":null,"activity_confidence":null,"catalog_id":"ATA_233"},"geometry":{"type":"LineString","coordinates":[[-70.9507,10.0175],[-70.963,9.9221],[-70.9385,9.8494]]}},{"type":"Feature","properties":{"name":"BOCONO-ANCON-EL PILAR FAULT SYSTEM","slip_type":"Dextral","average_dip":null,"net_slip_rate":null,"activity_confidence":null,"catalog_id":"ATA_271"},"geometry":{"type":"LineString","coordinates":[[-70.0576,10.8781],[-69.8738,10.9173],[-69.7202,10.9717],[-69.578,11.0306],[-69.3723,11.1496],[-69.3169,11.1612],[-69.2626,11.1831],[-69.0268,11.2975]]}},{"type":"Feature","properties":{"name":null,"slip_type":"Reverse","average_dip":null,"net_slip_rate":null,"activity_confidence":null,"catalog_id":"ATA_274"},"geometry":{"type":"LineString","coordinates":[[-70.0114,10.8122],[-70.1917,10.7706],[-70.278,10.692]]}},{"type":"Feature","properties":{"name":null,"slip_type":"Reverse","average_dip":null,"net_slip_rate":null,"activity_confidence":null,"catalog_id":"ATA_275"},"geometry":{"type":"LineString","coordinates":[[-70.2257,10.8596],[-70.2846,10.8414],[-70.4086,10.7495],[-70.4961,10.7096],[-70.5143,10.6914]]}},{"type":"Feature","properties":{"name":null,"slip_type":"Reverse","average_dip":null,"net_slip_rate":null,"activity_confidence":null,"catalog_id":"ATA_276"},"geometry":{"type":"LineString","coordinates":[[-69.9319,10.9272],[-69.9562,10.9159],[-70.1191,10.9029],[-70.1468,10.8942]]}},{"type":"Feature","properties":{"name":null,"slip_type":"Reverse","average_dip":null,"net_slip_rate":null,"activity_confidence":null,"catalog_id":"ATA_277"},"geometry":{"type":"LineString","coordinates":[[-69.8314,10.9748],[-69.9076,10.9454],[-70.0038,10.9341],[-70.0489,10.9176]]}},{"type":"Feature","properties":{"name":null,"slip_type":"Reverse","average_dip":null,"net_slip_rate":null,"activity_confidence":null,"catalog_id":"ATA_278"},"geometry":{"type":"LineString","coordinates":[[-69.7751,11.3121],[-69.8673,11.2764],[-69.987,11.2608],[-70.0107,11.2356],[-70.0947,11.2259],[-70.149,11.2296]]}},{"type":"Feature","properties":{"name":null,"slip_type":"Reverse","average_dip":null,"net_slip_rate":null,"activity_confidence":null,"catalog_id":"ATA_280"},"geometry":{"type":"LineString","coordinates":[[-70.3898,11.0825],[-70.3798,11.0924],[-70.3293,11.0874],[-70.2748,11.0716],[-70.258,11.0547],[-70.2074,11.0646],[-70.0677,11.1082],[-70.0548,11.1053],[-69.9706,11.1746]]}},{"type":"Feature","properties":{"name":null,"slip_type":"Reverse","average_dip":null,"net_slip_rate":null,"activity_confidence":null,"catalog_id":"ATA_284"},"geometry":{"type":"LineString","coordinates":[[-75.9381,2.2074],[-75.9218,2.2076],[-75.7643,2.2953]]}},{"type":"Feature","properties":{"name":"SAN_JACINTO_FAULT","slip_type":"Reverse","average_dip":null,"net_slip_rate":null,"activity_confidence":null,"catalog_id":"ATA_285"},"geometry":{"type":"LineString","coordinates":[[-75.7013,2.3691],[-75.6411,2.4205],[-75.6031,2.4659],[-75.5558,2.5433],[-75.5424,2.5869],[-75.5002,2.6276],[-75.4548,2.699],[-75.4085,2.7453],[-75.3399,2.7814],[-75.2913,2.8746]]}},{"type":"Feature","properties":{"name":"SINU-SAN JACINTO FAULT SYSTEM","slip_type":"Reverse","average_dip":null,"net_slip_rate":null,"activity_confidence":null,"catalog_id":"ATA_312"},"geometry":{"type":"LineString","coordinates":[[-75.218,10.1131],[-75.2502,10.0689],[-75.2799,9.9893],[-75.2975,9.9629],[-75.3943,9.8792],[-75.407,9.8145],[-75.4409,9.7828],[-75.4486,9.7245],[-75.464,9.6978]]}},{"type":"Feature","properties":{"name":"SINU-SAN JACINTO FAULT SYSTEM","slip_type":"Reverse","average_dip":null,"net_slip_rate":null,"activity_confidence":null,"catalog_id":"ATA_313"},"geometry":{"type":"LineString","coordinates":[[-75.3709,9.6458],[-75.4506,9.5061],[-75.516,9.4333]]}},{"type":"Feature","properties":{"name":null,"slip_type":"Reverse","average_dip":null,"net_slip_rate":null,"activity_confidence":null,"catalog_id":"ATA_314"},"geometry":{"type":"LineString","coordinates":[[-75.1444,10.0896],[-75.1171,10.155],[-75.1101,10.2404]]}},{"type":"Feature","properties":{"name":null,"slip_type":"Reverse","average_dip":null,"net_slip_rate":null,"activity_confidence":null,"catalog_id":"ATA_315"},"geometry":{"type":"LineString","coordinates":[[-75.0759,10.1062],[-75.0164,10.1953],[-74.9942,10.2756]]}},{"type":"Feature","properties":{"name":null,"slip_type":"Reverse","average_dip":null,"net_slip_rate":null,"activity_confidence":null,"catalog_id":"ATA_316"},"geometry":{"type":"LineString","coordinates":[[-75.0698,10.0859],[-75.0276,10.1597]]}},{"type":"Feature","properties":{"name":null,"slip_type":"Reverse","average_dip":null,"net_slip_rate":null,"activity_confidence":null,"catalog_id":"ATA_376"},"geometry":{"type":"LineString","coordinates":[[-74.5253,7.0924],[-74.5239,7.1645],[-74.4906,7.3959],[-74.4906,7.5788],[-74.51,7.7714],[-74.5114,7.874],[-74.4976,8.1234],[-74.4518,8.3603],[-74.4144,8.4795]]}},{"type":"Feature","properties":{"name":null,"slip_type":"Dextral","average_dip":null,"net_slip_rate":null,"activity_confidence":null,"catalog_id":"ATA_377"},"geometry":{"type":"LineString","coordinates":[[-74.4893,7.425],[-74.4103,7.4984],[-74.3618,7.5663],[-74.2592,7.6841],[-74.1137,7.733],[-74.0753,7.7673],[-74.042,7.8182],[-73.9778,7.8837],[-73.8825,7.9556]]}},{"type":"Feature","properties":{"name":null,"slip_type":"Sinistral","average_dip":null,"net_slip_rate":null,"activity_confidence":null,"catalog_id":"ATA_378"},"geometry":{"type":"LineString","coordinates":[[-74.4207,7.3097],[-74.3057,7.4593],[-74.1491,7.5799],[-74.0798,7.6478],[-74.0147,7.6852],[-73.951,7.7102]]}},{"type":"Feature","properties":{"name":null,"slip_type":"Sinistral","average_dip":null,"net_slip_rate":null,"activity_confidence":null,"catalog_id":"ATA_379"},"geometry":{"type":"LineString","coordinates":[[-74.235,7.7102],[-74.1186,7.8931],[-74.0577,8.0039],[-73.9884,8.0524],[-73.9551,8.0912],[-73.8581,8.1674]]}},{"type":"Feature","properties":{"name":null,"slip_type":"Dextral","average_dip":null,"net_slip_rate":null,"activity_confidence":null,"catalog_id":"ATA_380"},"geometry":{"type":"LineString","coordinates":[[-74.3806,8.2359],[-74.1104,8.4479],[-74.0803,8.4781],[-74.0605,8.5124],[-74.0252,8.5415],[-73.9327,8.6038]]}},{"type":"Feature","properties":{"name":"BAGRE NORTE FAULT","slip_type":"Reverse","average_dip":null,"net_slip_rate":null,"activity_confidence":null,"catalog_id":"ATA_381"},"geometry":{"type":"LineString","coordinates":[[-74.5977,7.7705],[-74.6328,7.7151],[-74.6809,7.4952],[-74.679,7.4102],[-74.6125,7.1793],[-74.6033,7.122],[-74.5996,6.9964]]}},{"type":"Feature","properties":{"name":"SINU-SAN JACINTO FAULT SYSTEM","slip_type":"Reverse","average_dip":null,"net_slip_rate":null,"activity_confidence":null,"catalog_id":"ATA_396"},"geometry":{"type":"LineString","coordinates":[[-75.231,10.3183],[-75.2154,10.4274],[-75.1812,10.498],[-75.1428,10.526],[-75.1058,10.627],[-75.103,10.6621]]}},{"type":"Feature","properties":{"name":null,"slip_type":"Dextral","average_dip":null,"net_slip_rate":null,"activity_confidence":null,"catalog_id":"ATA_460"},"geometry":{"type":"LineString","coordinates":[[-73.1897,11.2358],[-73.447,11.2099],[-73.5139,11.1948],[-73.5916,11.1622]]}},{"type":"Feature","properties":{"name":null,"slip_type":"Dextral","average_dip":null,"net_slip_rate":null,"activity_confidence":null,"catalog_id":"ATA_461"},"geometry":{"type":"LineString","coordinates":[[-75.9005,3.7617],[-75.9425,3.7248],[-75.9576,3.6862],[-76.0247,3.6023]]}},{"type":"Feature","properties":{"name":null,"slip_type":"Dextral","average_dip":null,"net_slip_rate":null,"activity_confidence":null,"catalog_id":"ATA_462"},"geometry":{"type":"LineString","coordinates":[[-75.052,4.4676],[-74.9403,4.5023]]}},{"type":"Feature","properties":{"name":"PERIJA EL TIGRE FAULT SYSTEM","slip_type":"Reverse","average_dip":null,"net_slip_rate":null,"activity_confidence":null,"catalog_id":"ATA_463"},"geometry":{"type":"LineString","coordinates":[[-72.9015,8.9933],[-72.8866,9.0404],[-72.8479,9.0895],[-72.8459,9.114],[-72.8285,9.1515],[-72.7839,9.2167],[-72.7781,9.2393],[-72.7794,9.302],[-72.7633,9.3362],[-72.7652,9.4247],[-72.7542,9.5067],[-72.7213,9.6178],[-72.7181,9.6533],[-72.7303,9.8503],[-72.7032,9.9136]]}},{"type":"Feature","properties":{"name":"PERIJA EL TIGRE FAULT SYSTEM","slip_type":"Reverse","average_dip":null,"net_slip_rate":null,"activity_confidence":null,"catalog_id":"ATA_464"},"geometry":{"type":"LineString","coordinates":[[-72.906,8.6561],[-72.9047,8.7246],[-72.9267,8.8202],[-72.9028,8.9545],[-72.9034,9.0262],[-72.8931,9.0643],[-72.8705,9.1011],[-72.8513,9.1749],[-72.8077,9.2364]]}},{"type":"Feature","properties":{"name":null,"slip_type":"Dextral","average_dip":null,"net_slip_rate":null,"activity_confidence":null,"catalog_id":"ATA_465"},"geometry":{"type":"LineString","coordinates":[[-73.2326,9.531],[-73.15,9.6109],[-73.107,9.6761],[-72.9974,9.8031],[-72.8543,10.0007],[-72.6876,10.2056],[-72.6436,10.2414]]}},{"type":"Feature","properties":{"name":null,"slip_type":"Reverse","average_dip":null,"net_slip_rate":null,"activity_confidence":null,"catalog_id":"ATA_466"},"geometry":{"type":"LineString","coordinates":[[-72.7448,10.947],[-72.7537,10.9419],[-72.7633,10.8724],[-72.7773,10.8399]]}},{"type":"Feature","properties":{"name":null,"slip_type":"Reverse","average_dip":null,"net_slip_rate":null,"activity_confidence":null,"catalog_id":"ATA_467"},"geometry":{"type":"LineString","coordinates":[[-72.6544,11.0332],[-72.6898,11.0218],[-72.7161,10.9921],[-72.7175,10.9701],[-72.7295,10.95]]}},{"type":"Feature","properties":{"name":null,"slip_type":"Reverse","average_dip":null,"net_slip_rate":null,"activity_confidence":null,"catalog_id":"ATA_468"},"geometry":{"type":"LineString","coordinates":[[-72.4995,11.159],[-72.5172,11.1265],[-72.5468,11.1083]]}},{"type":"Feature","properties":{"name":null,"slip_type":"Reverse","average_dip":null,"net_slip_rate":null,"activity_confidence":null,"catalog_id":"ATA_469"},"geometry":{"type":"LineString","coordinates":[[-72.5597,11.1078],[-72.5832,11.0791],[-72.5975,11.0796],[-72.609,11.0701],[-72.6118,11.0505],[-72.6444,11.0352]]}},{"type":"Feature","properties":{"name":null,"slip_type":"Reverse","average_dip":null,"net_slip_rate":null,"activity_confidence":null,"catalog_id":"ATA_470"},"geometry":{"type":"LineString","coordinates":[[-72.8879,10.6848],[-72.9089,10.6489],[-72.951,10.6097],[-72.962,10.5782],[-73.0055,10.5591]]}},{"type":"Feature","properties":{"name":null,"slip_type":"Reverse","average_dip":null,"net_slip_rate":null,"activity_confidence":null,"catalog_id":"ATA_471"},"geometry":{"type":"LineString","coordinates":[[-72.8095,10.7824],[-72.8549,10.7307],[-72.918,10.6901]]}},{"type":"Feature","properties":{"name":null,"slip_type":"Sinistral","average_dip":null,"net_slip_rate":null,"activity_confidence":null,"catalog_id":"ATA_472"},"geometry":{"type":"LineString","coordinates":[[-73.1657,10.353],[-73.1082,10.395],[-73.0584,10.4455]]}},{"type":"Feature","properties":{"name":null,"slip_type":"Dextral","average_dip":null,"net_slip_rate":null,"activity_confidence":null,"catalog_id":"ATA_474"},"geometry":{"type":"LineString","coordinates":[[-75.3743,7.6793],[-75.4694,7.54],[-75.5294,7.4192],[-75.5677,7.3644],[-75.6047,7.3374]]}},{"type":"Feature","properties":{"name":null,"slip_type":"Sinistral","average_dip":null,"net_slip_rate":null,"activity_confidence":null,"catalog_id":"ATA_475"},"geometry":{"type":"LineString","coordinates":[[-75.4872,7.7235],[-75.4971,7.676],[-75.54,7.5763]]}},{"type":"Feature","properties":{"name":null,"slip_type":"Sinistral","average_dip":null,"net_slip_rate":null,"activity_confidence":null,"catalog_id":"ATA_476"},"geometry":{"type":"LineString","coordinates":[[-75.4483,7.7215],[-75.4674,7.6694],[-75.509,7.6027],[-75.5209,7.5585],[-75.5605,7.4713],[-75.5869,7.3657],[-75.6073,7.3248],[-75.637,7.1908],[-75.6535,7.1545]]}},{"type":"Feature","properties":{"name":"CUIZA FAULT","slip_type":"Dextral","average_dip":null,"net_slip_rate":null,"activity_confidence":null,"catalog_id":"ATA_478"},"geometry":{"type":"LineString","coordinates":[[-71.5877,11.9145],[-71.3375,11.9389],[-70.7942,12.0488],[-70.5256,12.1281],[-70.2021,12.1342],[-69.8725,12.1098],[-69.3598,12.0549],[-68.963,12.0305],[-68.6578,12.0366]]}},{"type":"Feature","properties":{"name":null,"slip_type":null,"average_dip":null,"net_slip_rate":null,"activity_confidence":null,"catalog_id":"ATA_487"},"geometry":{"type":"LineString","coordinates":[[-71.9255,5.975],[-71.8646,6.092],[-71.8603,6.1476]]}},{"type":"Feature","properties":{"name":"Montenegro","slip_type":"Normal-Sinistral","average_dip":"(72.0,,)","net_slip_rate":"(0.5,0.1,1.0)","activity_confidence":null,"catalog_id":"SA_156"},"geometry":{"type":"LineString","coordinates":[[-75.8893,4.3084],[-75.8529,4.41],[-75.7966,4.4875],[-75.7681,4.5378],[-75.7593,4.5723]]}},{"type":"Feature","properties":{"name":"Armenia","slip_type":"Normal-Sinistral","average_dip":"(72.0,,)","net_slip_rate":"(0.5,0.1,1.0)","activity_confidence":null,"catalog_id":"SA_157"},"geometry":{"type":"LineString","coordinates":[[-75.708,4.363],[-75.712,4.4258],[-75.7004,4.4519],[-75.6652,4.619],[-75.6571,4.6735],[-75.663,4.701]]}},{"type":"Feature","properties":{"name":"Espiritu Santo","slip_type":"Normal-Dextral","average_dip":"(72.0,,)","net_slip_rate":"(0.5,0.1,1.0)","activity_confidence":null,"catalog_id":"SA_158"},"geometry":{"type":"LineString","coordinates":[[-75.1615,7.8001],[-75.2078,7.6012],[-75.253,7.4859],[-75.3314,7.3638],[-75.4682,7.2196],[-75.6435,7.0034],[-75.7354,6.8465],[-75.7489,6.7754],[-75.7784,6.7137]]}},{"type":"Feature","properties":{"name":"Falla de Algarrobo","slip_type":"Sinistral","average_dip":"(72.0,,)","net_slip_rate":"(5,,)","activity_confidence":null,"catalog_id":"SA_159"},"geometry":{"type":"LineString","coordinates":[[-73.9677,9.8677],[-73.865,9.5556],[-73.5292,8.7432],[-73.387,8.2448],[-73.2951,8.0259],[-73.2792,7.9565],[-73.3135,7.8204]]}},{"type":"Feature","properties":{"name":"Ca\u0096asgordas","slip_type":"Reverse-Sinistral","average_dip":"(72.0,,)","net_slip_rate":"(0.5,0.1,1.0)","activity_confidence":null,"catalog_id":"SA_160"},"geometry":{"type":"LineString","coordinates":[[-76.0623,6.7929],[-75.9988,6.7177],[-75.9234,6.6633]]}},{"type":"Feature","properties":{"name":"Honda","slip_type":"Reverse-Sinistral","average_dip":"(52.0,45,60)","net_slip_rate":"(0.5,0.1,1.0)","activity_confidence":null,"catalog_id":"SA_169"},"geometry":{"type":"LineString","coordinates":[[-74.7562,4.7565],[-74.7867,4.9545],[-74.7676,5.1395],[-74.7321,5.2049],[-74.7075,5.3277],[-74.6363,5.4504],[-74.6363,5.4809],[-74.5533,5.6416],[-74.5406,5.6948],[-74.4712,5.8055],[-74.4441,5.8103]]}},{"type":"Feature","properties":{"name":"Su\u0087arez","slip_type":"Reverse-Sinistral","average_dip":"(52.0,60,90)","net_slip_rate":"(3.0,1,5)","activity_confidence":null,"catalog_id":"SA_170"},"geometry":{"type":"LineString","coordinates":[[-73.1346,7.1832],[-73.1705,7.1282],[-73.1847,7.0843],[-73.1841,7.0667],[-73.1706,7.0485],[-73.1729,6.9948],[-73.1633,6.9513]]}},{"type":"Feature","properties":{"name":"Seccion Yopal","slip_type":"Reverse","average_dip":"(37.0,30,45)","net_slip_rate":"(3.0,1,5)","activity_confidence":null,"catalog_id":"SA_171"},"geometry":{"type":"LineString","coordinates":[[-71.7153,6.637],[-71.7557,6.4927],[-71.7406,6.4142],[-71.7459,6.2925],[-71.8091,6.1461],[-71.8157,6.0814],[-71.884,5.9048],[-71.9475,5.7875],[-72.1151,5.6036],[-72.2488,5.4728],[-72.3187,5.4259],[-72.4226,5.3184],[-72.4641,5.298],[-72.4969,5.2339],[-72.5689,5.1743],[-72.6299,4.9824],[-72.6747,4.9297],[-72.6772,4.8989],[-72.7557,4.8228],[-72.7668,4.7755],[-72.7999,4.7424],[-72.8434,4.6568],[-72.9624,4.549]]}},{"type":"Feature","properties":{"name":"Algeciras-Balsillas","slip_type":"Dextral","average_dip":"(72.0,,)","net_slip_rate":"(3.0,1,5)","activity_confidence":null,"catalog_id":"SA_172"},"geometry":{"type":"LineString","coordinates":[[-73.8507,3.6539],[-73.8846,3.6482],[-73.9625,3.6052],[-74.0133,3.5531],[-74.0978,3.5008],[-74.1323,3.4562],[-74.1607,3.4356],[-74.2705,3.3742],[-74.328,3.3247],[-74.4973,3.2224],[-74.609,3.1355],[-74.6727,3.1085],[-74.8226,3.0014],[-74.9193,2.9034],[-74.9613,2.8363],[-75.0393,2.745],[-75.1048,2.686],[-75.2414,2.5893],[-75.3055,2.5273],[-75.3598,2.4931]]}},{"type":"Feature","properties":{"name":"Altamira - Pitalito","slip_type":"Reverse-Dextral","average_dip":"(72.0,,)","net_slip_rate":"(0.6,0.2,1.0)","activity_confidence":null,"catalog_id":"SA_173"},"geometry":{"type":"LineString","coordinates":[[-76.0909,1.8444],[-75.9135,1.9365],[-75.8331,2.0038],[-75.8256,2.024],[-75.8015,2.0478],[-75.7623,2.0628],[-75.7267,2.0995],[-75.6257,2.17]]}},{"type":"Feature","properties":{"name":"Zuluaga-Garz\u0097n","slip_type":"Dextral","average_dip":"(72.0,,)","net_slip_rate":"(3.0,1,5)","activity_confidence":null,"catalog_id":"SA_174"},"geometry":{"type":"LineString","coordinates":[[-75.6257,2.17],[-75.5494,2.2346],[-75.4787,2.3135],[-75.371,2.4814],[-75.2727,2.5605]]}},{"type":"Feature","properties":{"name":"Usme","slip_type":"Normal-Dextral","average_dip":"(72.0,,)","net_slip_rate":"(3.0,1,5)","activity_confidence":null,"catalog_id":"SA_175"},"geometry":{"type":"LineString","coordinates":[[-74.161,4.1811],[-74.1638,4.2345],[-74.1438,4.2944],[-74.1354,4.3616],[-74.1433,4.4493],[-74.1308,4.4761],[-74.1301,4.5234]]}},{"type":"Feature","properties":{"name":"Mulato","slip_type":"Reverse","average_dip":"(72.0,,)","net_slip_rate":"(0.5,0.1,1.0)","activity_confidence":null,"catalog_id":"SA_180"},"geometry":{"type":"LineString","coordinates":[[-74.7661,6.1245],[-74.7652,6.062],[-74.7735,6.024],[-74.7658,5.9439],[-74.7885,5.8572],[-74.7796,5.7616],[-74.7835,5.6783],[-74.8194,5.6059],[-74.8643,5.5678]]}},{"type":"Feature","properties":{"name":"Jetudo","slip_type":"Reverse-Sinistral","average_dip":"(52.0,45,60)","net_slip_rate":"(0.5,0.1,1.0)","activity_confidence":null,"catalog_id":"SA_181"},"geometry":{"type":"LineString","coordinates":[[-74.8372,5.9507],[-74.8075,5.9165],[-74.8018,5.8807],[-74.8231,5.8211],[-74.8245,5.7662],[-74.8429,5.6795],[-74.8174,5.5864],[-74.8133,5.5378],[-74.8281,5.4754],[-74.8542,5.4141],[-74.8599,5.3419],[-74.8762,5.2938],[-74.8977,5.1765],[-74.9208,4.9004],[-74.9451,4.7824],[-74.9302,4.7226],[-74.9486,4.6543],[-74.9515,4.5935]]}},{"type":"Feature","properties":{"name":"Los Bajos - Sur","slip_type":"Dextral","average_dip":"(90.,,)","net_slip_rate":"(6.0,5.0,7.0)","activity_confidence":null,"catalog_id":"SA_243"},"geometry":{"type":"LineString","coordinates":[[-62.4547,10.6388],[-62.3996,10.5638],[-62.3217,10.4999],[-62.2019,10.3844],[-62.1692,10.3626],[-61.5693,10.1167],[-61.1962,9.9988]]}},{"type":"Feature","properties":{"name":"Coche - Este","slip_type":"Dextral","average_dip":"(90,,)","net_slip_rate":"(0.4,,)","activity_confidence":null,"catalog_id":"SA_244"},"geometry":{"type":"LineString","coordinates":[[-64.0402,10.8703],[-63.562,10.8538],[-63.4602,10.8592],[-63.2205,10.8912],[-63.0857,10.894],[-62.673,10.8428],[-62.5005,10.8427],[-62.4142,10.832]]}},{"type":"Feature","properties":{"name":"Costa Norte - Oeste","slip_type":"Dextral","average_dip":"(90,,)","net_slip_rate":"(0.35,0.2,0.5)","activity_confidence":null,"catalog_id":"SA_245"},"geometry":{"type":"LineString","coordinates":[[-62.7561,10.7752],[-62.8397,10.7351],[-62.8976,10.7247],[-63.4011,10.7029],[-63.687,10.6772],[-63.7209,10.6654]]}},{"type":"Feature","properties":{"name":"Costa Norte - Centro","slip_type":"Dextral","average_dip":"(90,,)","net_slip_rate":"(0.35,0.2,0.5)","activity_confidence":null,"catalog_id":"SA_246"},"geometry":{"type":"LineString","coordinates":[[-61.6935,10.9103],[-61.8606,10.8498],[-61.94,10.8096],[-61.9802,10.7799],[-62.1931,10.7651],[-62.2953,10.7635],[-62.6117,10.7992],[-62.7273,10.7848],[-62.8658,10.7555],[-62.9164,10.756],[-62.995,10.7704],[-63.1836,10.8337]]}},{"type":"Feature","properties":{"name":"Costa Norte - Este","slip_type":"Dextral","average_dip":"(90,,)","net_slip_rate":"(0.35,0.2,0.5)","activity_confidence":null,"catalog_id":"SA_247"},"geometry":{"type":"LineString","coordinates":[[-60.9486,10.8577],[-61.0611,10.8511],[-61.1325,10.8607],[-61.1765,10.8488],[-61.3512,10.8458],[-61.4959,10.8137],[-61.6268,10.7952],[-61.9802,10.7798]]}},{"type":"Feature","properties":{"name":"Patao Sur - Oeste","slip_type":"Dextral","average_dip":"(90,,)","net_slip_rate":"(0.15,0.1,0.2)","activity_confidence":null,"catalog_id":"SA_248"},"geometry":{"type":"LineString","coordinates":[[-62.52,10.9578],[-62.2417,10.9816],[-62.1751,10.9927],[-62.1328,11.0096],[-61.8914,11.0276],[-61.7641,11.0466]]}},{"type":"Feature","properties":{"name":"Ca\u00f1\u00f3n de Los Roques - Sur","slip_type":"Normal","average_dip":"(60,,)","net_slip_rate":"(0.75,0.5,1.0)","activity_confidence":null,"catalog_id":"SA_249"},"geometry":{"type":"LineString","coordinates":[[-64.3401,10.7933],[-64.6215,10.8326],[-64.7486,10.8756],[-64.813,10.9228],[-65.0014,11.0862],[-65.1128,11.1996],[-65.1914,11.2927],[-65.3294,11.5215],[-65.3893,11.6991]]}},{"type":"Feature","properties":{"name":"El Soldado - Norte","slip_type":"Dextral","average_dip":"(90,,)","net_slip_rate":"(3.0,2.0,4.0)","activity_confidence":null,"catalog_id":"SA_250"},"geometry":{"type":"LineString","coordinates":[[-61.1901,9.9995],[-61.2471,9.9734],[-61.3157,9.9602],[-61.4191,9.9514],[-61.491,9.9573],[-61.7099,10.0013],[-61.9425,10.0802],[-62.0704,10.189],[-62.2203,10.2985],[-62.4607,10.4472],[-62.5606,10.5186]]}},{"type":"Feature","properties":{"name":"Bohordal - Bohordal","slip_type":"Normal","average_dip":"(60,,)","net_slip_rate":"(0.3,0.1,0.5)","activity_confidence":null,"catalog_id":"SA_251"},"geometry":{"type":"LineString","coordinates":[[-62.316,9.9335],[-62.3695,9.9662],[-62.4617,10.0929],[-62.6806,10.3516],[-62.8574,10.5182]]}},{"type":"Feature","properties":{"name":"Margarita - Margarita","slip_type":"Dextral","average_dip":"(90,,)","net_slip_rate":"(0.3,0.1,0.5)","activity_confidence":null,"catalog_id":"SA_252"},"geometry":{"type":"LineString","coordinates":[[-63.8944,11.2807],[-63.6899,10.9651],[-63.6203,10.8855],[-63.5732,10.8538]]}},{"type":"Feature","properties":{"name":"El Pilar - Guaracayal - Casanay","slip_type":"Dextral","average_dip":"(90.,,)","net_slip_rate":"(9,,)","activity_confidence":null,"catalog_id":"SA_253"},"geometry":{"type":"LineString","coordinates":[[-62.3518,10.5236],[-62.9134,10.517],[-63.529,10.4971],[-63.7225,10.4695],[-63.8349,10.4746],[-64.0073,10.4547],[-64.0537,10.4607]]}},{"type":"Feature","properties":{"name":"El Pilar - Offshore","slip_type":"Dextral","average_dip":"(90.,,)","net_slip_rate":"(5,,)","activity_confidence":null,"catalog_id":"SA_254"},"geometry":{"type":"LineString","coordinates":[[-64.1308,10.4552],[-64.1528,10.4474],[-64.5049,10.4464],[-65.1061,10.4966],[-65.3762,10.5427],[-65.5652,10.6014],[-65.9876,10.6547]]}},{"type":"Feature","properties":{"name":"Patao Sur - Este","slip_type":"Reverse-Dextral","average_dip":"(72.0,,)","net_slip_rate":"(0.15,0.1,0.2)","activity_confidence":null,"catalog_id":"SA_255"},"geometry":{"type":"LineString","coordinates":[[-61.764,11.047],[-61.6231,11.0814],[-61.5219,11.1355],[-61.3784,11.232],[-61.0902,11.4496],[-61.0126,11.5226]]}},{"type":"Feature","properties":{"name":"Charagato - Charagato","slip_type":"Sinistral","average_dip":"(90,,)","net_slip_rate":"(1.0,,)","activity_confidence":null,"catalog_id":"SA_256"},"geometry":{"type":"LineString","coordinates":[[-64.34,10.7934],[-64.1794,10.8222],[-64.0195,10.831],[-63.8899,10.8598]]}},{"type":"Feature","properties":{"name":"Urica - Norte","slip_type":"Dextral","average_dip":"(90,,)","net_slip_rate":"(0.75,,)","activity_confidence":null,"catalog_id":"SA_257"},"geometry":{"type":"LineString","coordinates":[[-65.094,10.3506],[-64.905,10.3186],[-64.8319,10.297],[-64.7705,10.2556],[-64.6976,10.1898],[-64.6413,10.1754],[-64.5891,10.1288],[-64.5377,10.0649],[-64.4787,10.031],[-64.3695,9.985]]}},{"type":"Feature","properties":{"name":"El Pilar - Cuman\u00e1 - Guaracayal","slip_type":"Dextral","average_dip":"(90.,,)","net_slip_rate":"(9,,)","activity_confidence":null,"catalog_id":"SA_258"},"geometry":{"type":"LineString","coordinates":[[-64.1724,10.4637],[-64.0334,10.4777],[-63.8941,10.4744]]}},{"type":"Feature","properties":{"name":"Punta Arenas - Sur","slip_type":"Dextral-Normal","average_dip":"(90,,)","net_slip_rate":"(0.75,0.5,1.0)","activity_confidence":null,"catalog_id":"SA_259"},"geometry":{"type":"LineString","coordinates":[[-65.1327,11.8461],[-64.9635,11.5664],[-64.8878,11.4599],[-64.7469,11.2885],[-64.4267,10.9578],[-64.3162,10.8683],[-64.2331,10.8234]]}},{"type":"Feature","properties":{"name":"La Victoria - El Horno","slip_type":"Dextral","average_dip":"(90.,,)","net_slip_rate":"(0.5,,)","activity_confidence":null,"catalog_id":"SA_260"},"geometry":{"type":"LineString","coordinates":[[-67.4871,10.2371],[-67.776,10.14]]}},{"type":"Feature","properties":{"name":"La Victoria - La Victoria","slip_type":"Dextral","average_dip":"(90.,,)","net_slip_rate":"(0.55,,)","activity_confidence":null,"catalog_id":"SA_261"},"geometry":{"type":"LineString","coordinates":[[-67.0986,10.2768],[-67.5544,10.175]]}},{"type":"Feature","properties":{"name":"La Victoria - La Cabrera","slip_type":"Dextral","average_dip":"(90.,,)","net_slip_rate":"(1.1,,)","activity_confidence":null,"catalog_id":"SA_262"},"geometry":{"type":"LineString","coordinates":[[-67.6375,10.2258],[-67.8604,10.1576]]}},{"type":"Feature","properties":{"name":"La Victoria - Pichao","slip_type":"Dextral","average_dip":"(90.,,)","net_slip_rate":"(0.4,,)","activity_confidence":null,"catalog_id":"SA_263"},"geometry":{"type":"LineString","coordinates":[[-66.5331,10.3839],[-66.6104,10.3576],[-66.9846,10.2689],[-67.1387,10.245]]}},{"type":"Feature","properties":{"name":"T\u00e1cata - T\u00e1cata","slip_type":"Dextral","average_dip":"(72.0,,)","net_slip_rate":"(0.4,,)","activity_confidence":null,"catalog_id":"SA_264"},"geometry":{"type":"LineString","coordinates":[[-66.5031,9.9421],[-66.6598,10.0531],[-66.7572,10.0985],[-66.8441,10.1208],[-67.007,10.2259],[-67.1242,10.2371]]}},{"type":"Feature","properties":{"name":"R\u00edo Gu\u00e1rico - Norte","slip_type":"Dextral","average_dip":"(90,,)","net_slip_rate":"(0.3,,)","activity_confidence":null,"catalog_id":"SA_265"},"geometry":{"type":"LineString","coordinates":[[-67.4522,10.0339],[-67.5816,10.113]]}},{"type":"Feature","properties":{"name":"Arag\u00fcita - Arag\u00fcita","slip_type":"Dextral","average_dip":"(90,,)","net_slip_rate":"(0.4,,)","activity_confidence":null,"catalog_id":"SA_266"},"geometry":{"type":"LineString","coordinates":[[-65.9795,9.9378],[-66.0891,10.0108],[-66.4269,10.1938],[-66.5377,10.247],[-66.7253,10.3162]]}},{"type":"Feature","properties":{"name":"La Tortuga - La Tortuga","slip_type":"Dextral","average_dip":"(90,,)","net_slip_rate":"(1.0,,)","activity_confidence":null,"catalog_id":"SA_267"},"geometry":{"type":"LineString","coordinates":[[-66.3834,10.8156],[-66.1582,10.8191],[-65.8216,10.8717],[-65.6751,10.8829],[-65.3281,10.8598],[-65.0366,10.8773],[-64.9816,10.8688]]}},{"type":"Feature","properties":{"name":"San Sebasti\u00e1n - Centro","slip_type":"Dextral","average_dip":"(90,,)","net_slip_rate":"(5,,)","activity_confidence":null,"catalog_id":"SA_268"},"geometry":{"type":"LineString","coordinates":[[-65.9855,10.6552],[-66.5855,10.6412],[-66.8375,10.624],[-67.0333,10.5971],[-67.0904,10.6],[-67.4093,10.5748],[-67.6891,10.543],[-67.7854,10.5415]]}},{"type":"Feature","properties":{"name":"R\u00edo Gu\u00e1rico - Sur","slip_type":"Dextral","average_dip":"(90.,,)","net_slip_rate":"(0.3,,)","activity_confidence":null,"catalog_id":"SA_269"},"geometry":{"type":"LineString","coordinates":[[-66.8915,9.8361],[-66.9639,9.8629],[-67.1726,9.9615],[-67.188,9.9607]]}},{"type":"Feature","properties":{"name":"R\u00edo Gu\u00e1rico - Corrimiento","slip_type":"Reverse","average_dip":"(30,,)","net_slip_rate":"(0.3,,)","activity_confidence":null,"catalog_id":"SA_270"},"geometry":{"type":"LineString","coordinates":[[-67.188,9.9607],[-67.2443,9.9431],[-67.2867,9.9397],[-67.3371,9.9468]]}},{"type":"Feature","properties":{"name":"Tacagua - El \u00c1vila - Tacagua","slip_type":"Dextral-Normal","average_dip":"(72.0,,)","net_slip_rate":"(0.17,,)","activity_confidence":null,"catalog_id":"SA_271"},"geometry":{"type":"LineString","coordinates":[[-67.0905,10.6],[-66.9559,10.5317]]}},{"type":"Feature","properties":{"name":"Tacagua - El \u00c1vila - El \u00c1vila","slip_type":"Dextral","average_dip":"(90.,,)","net_slip_rate":"(0.4,,)","activity_confidence":null,"catalog_id":"SA_272"},"geometry":{"type":"LineString","coordinates":[[-66.9562,10.532],[-66.8094,10.5051],[-66.4692,10.4852]]}},{"type":"Feature","properties":{"name":"R\u00edo Gu\u00e1rico - Centro","slip_type":"Dextral","average_dip":"(90,,)","net_slip_rate":"(0.3,,)","activity_confidence":null,"catalog_id":"SA_273"},"geometry":{"type":"LineString","coordinates":[[-67.3371,9.9468],[-67.5205,10.0477]]}},{"type":"Feature","properties":{"name":"Tu\u00f1ame - Norte","slip_type":"Normal","average_dip":"(72.0,,)","net_slip_rate":"(0.5,,)","activity_confidence":null,"catalog_id":"SA_274"},"geometry":{"type":"LineString","coordinates":[[-70.7126,8.9696],[-70.6709,9.0148],[-70.5713,9.0896],[-70.4951,9.1216],[-70.3704,9.1913]]}},{"type":"Feature","properties":{"name":"Flanco Surandino - Sur 1","slip_type":"Reverse","average_dip":"(20.0,,30)","net_slip_rate":"(0.5,,)","activity_confidence":null,"catalog_id":"SA_275"},"geometry":{"type":"LineString","coordinates":[[-69.907,8.915],[-69.9483,8.8813],[-70.1192,8.7859],[-70.1762,8.7439],[-70.3911,8.5497],[-70.5099,8.4964],[-70.672,8.4496]]}},{"type":"Feature","properties":{"name":"Bocon\u00f3 - Lagunillas - Los Mirtos","slip_type":"Dextral","average_dip":"(90,,)","net_slip_rate":"(5.2,,)","activity_confidence":null,"catalog_id":"SA_276"},"geometry":{"type":"LineString","coordinates":[[-71.2378,8.54],[-71.3046,8.5304],[-71.4636,8.4764],[-71.54,8.4414],[-71.699,8.3492],[-71.8834,8.187],[-71.9598,8.1297],[-72.0712,7.996]]}},{"type":"Feature","properties":{"name":"Bocon\u00f3 - Bocon\u00f3 - Palo Colorado","slip_type":"Dextral","average_dip":"(90,,)","net_slip_rate":"(1.00,,)","activity_confidence":null,"catalog_id":"SA_277"},"geometry":{"type":"LineString","coordinates":[[-72.0709,7.996],[-72.1345,7.9229],[-72.2013,7.8975],[-72.3031,7.872],[-72.3857,7.8338],[-72.5035,7.7613],[-72.6164,7.7155]]}},{"type":"Feature","properties":{"name":"Lagarto - Lagarto","slip_type":"Dextral","average_dip":"(90,,)","net_slip_rate":"(0.25,0.2,0.3)","activity_confidence":null,"catalog_id":"SA_278"},"geometry":{"type":"LineString","coordinates":[[-70.351,11.0245],[-70.4243,11.1146],[-70.487,11.2564]]}},{"type":"Feature","properties":{"name":"Paraguan\u00e1 Oeste - Paraguan\u00e1 Oeste","slip_type":"Normal","average_dip":"(60,,)","net_slip_rate":"(0.2,,)","activity_confidence":null,"catalog_id":"SA_279"},"geometry":{"type":"LineString","coordinates":[[-70.3384,11.9446],[-70.2581,11.7343],[-70.2163,11.5875]]}},{"type":"Feature","properties":{"name":"Los M\u00e9danos - Los M\u00e9danos","slip_type":"Normal","average_dip":"(60,,)","net_slip_rate":"(0.2,,)","activity_confidence":null,"catalog_id":"SA_280"},"geometry":{"type":"LineString","coordinates":[[-69.6222,11.4662],[-69.7114,11.5942],[-69.7543,11.6987],[-69.7983,11.7766],[-69.8255,11.8523],[-69.8368,11.929]]}},{"type":"Feature","properties":{"name":"San Rom\u00e1n - San Rom\u00e1n","slip_type":"Normal-Dextral","average_dip":"(60,,)","net_slip_rate":"(0.2,,)","activity_confidence":null,"catalog_id":"SA_281"},"geometry":{"type":"LineString","coordinates":[[-70.1226,12.124],[-69.9176,12.1074]]}},{"type":"Feature","properties":{"name":"La Soledad - La Soledad","slip_type":"Dextral-Normal","average_dip":"(90,,)","net_slip_rate":"(0.3,,)","activity_confidence":null,"catalog_id":"SA_282"},"geometry":{"type":"LineString","coordinates":[[-69.3077,11.3383],[-69.4329,11.4529],[-69.4735,11.5296],[-69.4657,11.5775]]}},{"type":"Feature","properties":{"name":"Costa NE de Falc\u00f3n - Centro","slip_type":"Dextral-Normal","average_dip":"(90,,)","net_slip_rate":"(0.3,,)","activity_confidence":null,"catalog_id":"SA_283"},"geometry":{"type":"LineString","coordinates":[[-68.3011,10.8495],[-68.4619,10.9861],[-68.6807,11.2034],[-68.8236,11.3458],[-68.9135,11.458]]}},{"type":"Feature","properties":{"name":"Costa NE de Falc\u00f3n - Este","slip_type":"Dextral-Normal","average_dip":"(90,,)","net_slip_rate":"(0.3,,)","activity_confidence":null,"catalog_id":"SA_284"},"geometry":{"type":"LineString","coordinates":[[-68.2268,10.848],[-68.3434,10.9263],[-68.4009,10.9803],[-68.6255,11.313],[-68.7923,11.4923]]}},{"type":"Feature","properties":{"name":"Costa NE de Falc\u00f3n - Oeste","slip_type":"Dextral-Normal","average_dip":"(90,,)","net_slip_rate":"(0.3,,)","activity_confidence":null,"catalog_id":"SA_285"},"geometry":{"type":"LineString","coordinates":[[-68.6356,10.9285],[-68.7699,11.0494],[-68.8875,11.193],[-69.0981,11.3672],[-69.3666,11.6743],[-69.396,11.751]]}},{"type":"Feature","properties":{"name":"Pedregal - Pedregal","slip_type":"Sinistral-Reverse","average_dip":"(90,,)","net_slip_rate":"(0.5,,)","activity_confidence":null,"catalog_id":"SA_286"},"geometry":{"type":"LineString","coordinates":[[-70.1381,10.9575],[-70.2615,10.8656]]}},{"type":"Feature","properties":{"name":"Oca Oeste","slip_type":"Dextral-Reverse","average_dip":"(72.0,,)","net_slip_rate":"(3.0,1.0,5.0)","activity_confidence":null,"catalog_id":"SA_287"},"geometry":{"type":"LineString","coordinates":[[-71.8585,11.0529],[-71.9096,11.0789],[-72.0667,11.133],[-72.2348,11.1773],[-72.5802,11.1847],[-72.7667,11.2074],[-72.8152,11.2221],[-72.9427,11.2396],[-73.1054,11.2403],[-73.3419,11.266]]}},{"type":"Feature","properties":{"name":"Oca - Anc\u00f3n - Oca Centro","slip_type":"Dextral-Reverse","average_dip":"(90.,,)","net_slip_rate":"(0.45,,)","activity_confidence":null,"catalog_id":"SA_288"},"geometry":{"type":"LineString","coordinates":[[-71.1173,10.8988],[-71.3396,10.8935],[-71.5084,10.9136],[-71.7731,11.0007],[-71.8873,11.0464]]}},{"type":"Feature","properties":{"name":"Oca - Anc\u00f3n - Oca Este","slip_type":"Dextral-Reverse","average_dip":"(90.,,)","net_slip_rate":"(0.45,,)","activity_confidence":null,"catalog_id":"SA_289"},"geometry":{"type":"LineString","coordinates":[[-70.6079,10.8703],[-71.1281,10.8846]]}},{"type":"Feature","properties":{"name":"Oca - Anc\u00f3n - Anc\u00f3n","slip_type":"Dextral","average_dip":"(90.,,)","net_slip_rate":"(1.55,,)","activity_confidence":null,"catalog_id":"SA_290"},"geometry":{"type":"LineString","coordinates":[[-70.7624,10.7614],[-71.1524,10.7323],[-71.3071,10.7389],[-71.3733,10.7564],[-71.513,10.8284],[-71.5731,10.8715],[-71.6374,10.9296],[-71.663,10.9627]]}},{"type":"Feature","properties":{"name":"Oca - Anc\u00f3n - Camare - Para\u00edso 1","slip_type":"Dextral-Reverse","average_dip":"(90.,,)","net_slip_rate":"(2.0,,)","activity_confidence":null,"catalog_id":"SA_291"},"geometry":{"type":"LineString","coordinates":[[-70.2802,10.856],[-70.5734,10.8241],[-70.6207,10.8268],[-70.7091,10.7654],[-70.7618,10.7614]]}},{"type":"Feature","properties":{"name":"Oca - Anc\u00f3n - Camare - Para\u00edso 2","slip_type":"Dextral-Reverse","average_dip":"(90.,,)","net_slip_rate":"(2.0,,)","activity_confidence":null,"catalog_id":"SA_292"},"geometry":{"type":"LineString","coordinates":[[-69.5195,10.8855],[-69.6153,10.8742],[-69.722,10.899],[-69.7999,10.9075],[-69.8421,10.9055],[-69.9106,10.8845],[-69.9819,10.8768],[-70.2766,10.8655]]}},{"type":"Feature","properties":{"name":"Oca - Anc\u00f3n - Churuguara","slip_type":"Dextral-Normal","average_dip":"(90.,,)","net_slip_rate":"(2.0,,)","activity_confidence":null,"catalog_id":"SA_293"},"geometry":{"type":"LineString","coordinates":[[-68.8399,10.63],[-68.8944,10.6323],[-69.0795,10.6917],[-69.2567,10.7352],[-69.3379,10.7683],[-69.4418,10.849],[-69.4877,10.8775],[-69.5195,10.8855]]}},{"type":"Feature","properties":{"name":"Oca - Anc\u00f3n - Socremo","slip_type":"Reverse-Dextral","average_dip":"(52.0,45,60)","net_slip_rate":"(1.5,1.0,2.0)","activity_confidence":null,"catalog_id":"SA_294"},"geometry":{"type":"LineString","coordinates":[[-68.4834,10.6332],[-68.6022,10.6236],[-68.8399,10.63]]}},{"type":"Feature","properties":{"name":"Flanco Norandino - Noreste","slip_type":"Reverse","average_dip":"(30,,)","net_slip_rate":"(0.5,,)","activity_confidence":null,"catalog_id":"SA_295"},"geometry":{"type":"LineString","coordinates":[[-71.9072,8.4699],[-71.816,8.511],[-71.645,8.6176],[-71.5784,8.6836],[-71.5449,8.7631],[-71.4757,8.7965],[-71.3901,8.824],[-71.2722,8.9037],[-71.2351,8.9658],[-71.2019,8.9947],[-71.0772,9.066],[-70.9401,9.2128],[-70.8906,9.2511],[-70.8386,9.3429],[-70.7913,9.3968],[-70.7349,9.4484],[-70.61,9.5344]]}},{"type":"Feature","properties":{"name":"Flanco Norandino - Suroeste","slip_type":"Reverse","average_dip":"(30,,)","net_slip_rate":"(0.35,0.2,0.5)","activity_confidence":null,"catalog_id":"SA_296"},"geometry":{"type":"LineString","coordinates":[[-72.3619,8.1841],[-72.2564,8.1979],[-72.2155,8.2396],[-72.0843,8.3241],[-71.9531,8.4407],[-71.9049,8.4705]]}},{"type":"Feature","properties":{"name":"Flanco Surandino - Norte 1","slip_type":"Reverse","average_dip":"(20.0,,30)","net_slip_rate":"(0.5,,)","activity_confidence":null,"catalog_id":"SA_297"},"geometry":{"type":"LineString","coordinates":[[-69.0763,9.7178],[-69.3059,9.552],[-69.3972,9.4443],[-69.4733,9.3709],[-69.5908,9.3375],[-69.7252,9.2675],[-69.798,9.2064],[-69.9798,9.0769],[-70.0796,9.0222],[-70.148,8.973],[-70.2277,8.9365],[-70.3677,8.7844],[-70.5778,8.5271],[-70.67,8.4528],[-70.6967,8.3944],[-70.8298,8.2819]]}},{"type":"Feature","properties":{"name":"Flanco Surandino - Sur 2","slip_type":"Reverse","average_dip":"(20.0,,30)","net_slip_rate":"(0.5,,)","activity_confidence":null,"catalog_id":"SA_298"},"geometry":{"type":"LineString","coordinates":[[-69.3521,9.4841],[-69.3577,9.4],[-69.398,9.3388],[-69.4753,9.2599],[-69.8343,9.0173],[-69.907,8.915]]}},{"type":"Feature","properties":{"name":"Caparo - Oeste","slip_type":"Dextral","average_dip":"(72.0,,)","net_slip_rate":"(1.75,1.0,2.5)","activity_confidence":null,"catalog_id":"SA_299"},"geometry":{"type":"LineString","coordinates":[[-72.1403,7.5709],[-72.0011,7.5868],[-71.949,7.6024],[-71.8889,7.6256],[-71.796,7.6859],[-71.7213,7.721],[-71.5641,7.7507],[-71.4767,7.797],[-71.4127,7.8594],[-71.382,7.8727],[-71.3552,7.9042],[-71.2929,8.0062],[-71.2632,8.1214]]}},{"type":"Feature","properties":{"name":"Burbusay - Burbusay","slip_type":"Sinistral","average_dip":"(90.,,)","net_slip_rate":"(1.5,1.0,2.0)","activity_confidence":null,"catalog_id":"SA_300"},"geometry":{"type":"LineString","coordinates":[[-70.2775,9.2108],[-70.254,9.9124],[-70.2729,10.0291],[-70.3056,10.0967]]}},{"type":"Feature","properties":{"name":"Bocon\u00f3 - Mucuch\u00edes -Anzo\u00e1tegui","slip_type":"Dextral","average_dip":"(90.,,)","net_slip_rate":"(9.0,,)","activity_confidence":null,"catalog_id":"SA_301"},"geometry":{"type":"LineString","coordinates":[[-70.295,9.1668],[-70.6387,8.8822],[-70.8521,8.7617],[-70.9431,8.7015]]}},{"type":"Feature","properties":{"name":"Bocon\u00f3 - Santa Cruz de Mora - Los Frailes","slip_type":"Dextral","average_dip":"(90.,,)","net_slip_rate":"(7.5,6.0,9.0)","activity_confidence":null,"catalog_id":"SA_302"},"geometry":{"type":"LineString","coordinates":[[-70.837,8.7982],[-71.1031,8.5925],[-71.1634,8.5584],[-71.4118,8.4559],[-71.4631,8.4486],[-71.5,8.4601]]}},{"type":"Feature","properties":{"name":"Bocon\u00f3 - Anzo\u00e1tegui - Barquisimeto","slip_type":"Dextral","average_dip":"(90.,,)","net_slip_rate":"(5.0,,)","activity_confidence":null,"catalog_id":"SA_303"},"geometry":{"type":"LineString","coordinates":[[-69.3261,10.0559],[-69.5349,9.8911],[-69.6894,9.7177],[-69.8706,9.5371],[-70.273,9.2016],[-70.3273,9.1697]]}},{"type":"Feature","properties":{"name":"Bocon\u00f3 - Cabudare - Mor\u00f3n","slip_type":"Dextral-Reverse","average_dip":"(72.0,,)","net_slip_rate":"(2.0,1.0,3.0)","activity_confidence":null,"catalog_id":"SA_304"},"geometry":{"type":"LineString","coordinates":[[-67.7854,10.5415],[-68.1173,10.5419],[-68.243,10.5325],[-68.4564,10.4913],[-68.5738,10.4584],[-68.6544,10.4267],[-68.8605,10.3163],[-69.3252,10.0062]]}},{"type":"Feature","properties":{"name":"La Victoria - Guacamaya Oeste","slip_type":"Dextral","average_dip":"(90.,,)","net_slip_rate":"(0.6,,)","activity_confidence":null,"catalog_id":"SA_305"},"geometry":{"type":"LineString","coordinates":[[-68.1613,10.0987],[-68.3506,10.0493],[-68.5318,9.9789],[-68.862,9.88],[-68.9359,9.8677],[-69.0087,9.8833]]}},{"type":"Feature","properties":{"name":"La Victoria - Guacamaya Este","slip_type":"Dextral","average_dip":"(90.,,)","net_slip_rate":"(0.6,,)","activity_confidence":null,"catalog_id":"SA_306"},"geometry":{"type":"LineString","coordinates":[[-67.7188,10.2687],[-68.1613,10.0987],[-68.2995,10.0193],[-68.3695,9.9696],[-68.5847,9.8488]]}},{"type":"Feature","properties":{"name":"Costa NE de Falc\u00f3n - Costa Oriental Falc\u00f3n","slip_type":"Dextral-Normal","average_dip":"(90,,)","net_slip_rate":"(0.3,,)","activity_confidence":null,"catalog_id":"SA_307"},"geometry":{"type":"LineString","coordinates":[[-68.1274,10.8309],[-68.2491,10.9671],[-68.3955,11.193],[-68.4664,11.2561],[-68.575,11.372],[-68.6241,11.4497]]}},{"type":"Feature","properties":{"name":"Valera - Norte 1","slip_type":"Sinistral","average_dip":"(90.,,)","net_slip_rate":"(0.5,0.01,1.0)","activity_confidence":null,"catalog_id":"SA_308"},"geometry":{"type":"LineString","coordinates":[[-70.6352,9.7053],[-70.6632,9.8764],[-70.666,10.1392],[-70.6856,10.2194]]}},{"type":"Feature","properties":{"name":"Valera - Norte 2","slip_type":"Sinistral","average_dip":"(90.,,)","net_slip_rate":"(1.0,,)","activity_confidence":null,"catalog_id":"SA_309"},"geometry":{"type":"LineString","coordinates":[[-70.6556,9.2565],[-70.639,9.2782],[-70.6082,9.3785],[-70.6038,9.502],[-70.6352,9.7053]]}},{"type":"Feature","properties":{"name":"Valera - R\u00edo Momboy","slip_type":"Normal-Sinistral","average_dip":"(90.,,)","net_slip_rate":"(0.7,,)","activity_confidence":null,"catalog_id":"SA_310"},"geometry":{"type":"LineString","coordinates":[[-70.7427,9.0462],[-70.72,9.0877],[-70.6556,9.2565]]}},{"type":"Feature","properties":{"name":"Valera - P\u00e1ramo Miranda","slip_type":"Normal-Sinistral","average_dip":"(90.,,)","net_slip_rate":"(0.5,0.01,1.0)","activity_confidence":null,"catalog_id":"SA_311"},"geometry":{"type":"LineString","coordinates":[[-70.9064,8.7743],[-70.8242,8.9251],[-70.7427,9.0462]]}},{"type":"Feature","properties":{"name":"San Sebasti\u00e1n - Este 2","slip_type":"Dextral","average_dip":"(90,,)","net_slip_rate":"(5,,)","activity_confidence":null,"catalog_id":"SA_312"},"geometry":{"type":"LineString","coordinates":[[-65.9855,10.6552],[-65.4768,10.6965],[-65.3077,10.687],[-65.226,10.6777],[-64.8378,10.5791],[-64.5591,10.5448],[-64.4013,10.5442]]}},{"type":"Feature","properties":{"name":"El Merey - Areo - Este","slip_type":"Reverse","average_dip":"(30,,)","net_slip_rate":"(0.15,0.1,0.2)","activity_confidence":null,"catalog_id":"SA_313"},"geometry":{"type":"LineString","coordinates":[[-63.7098,9.716],[-63.8083,9.7323],[-63.8794,9.717],[-63.921,9.7186],[-63.965,9.741]]}},{"type":"Feature","properties":{"name":"Jusep\u00edn - Jusep\u00edn","slip_type":"Reverse","average_dip":"(30,,)","net_slip_rate":"(0.15,0.1,0.2)","activity_confidence":null,"catalog_id":"SA_314"},"geometry":{"type":"LineString","coordinates":[[-63.3313,9.7491],[-63.3879,9.742],[-63.4718,9.7439],[-63.5323,9.7667],[-63.6663,9.8441]]}},{"type":"Feature","properties":{"name":"La Toscana - La Toscana","slip_type":"Reverse","average_dip":"(30,,)","net_slip_rate":"(0.15,0.1,0.2)","activity_confidence":null,"catalog_id":"SA_315"},"geometry":{"type":"LineString","coordinates":[[-63.1666,9.8561],[-63.2222,9.8352],[-63.2744,9.8259],[-63.3461,9.8337],[-63.3824,9.8521]]}},{"type":"Feature","properties":{"name":"Pedernales - El Furrial - El Furrial Este","slip_type":"Reverse","average_dip":"(30,,)","net_slip_rate":"(0.15,0.1,0.2)","activity_confidence":null,"catalog_id":"SA_316"},"geometry":{"type":"LineString","coordinates":[[-63.0536,9.8094],[-63.1816,9.7542],[-63.2853,9.7386],[-63.4112,9.6898],[-63.4408,9.6907],[-63.5044,9.7122],[-63.524,9.7269],[-63.6414,9.7523],[-63.6634,9.7721]]}},{"type":"Feature","properties":{"name":"Tunapuy - Arima - Tunapuy Oeste","slip_type":"Reverse","average_dip":"(30,,)","net_slip_rate":"(0.25,0.1,0.4)","activity_confidence":null,"catalog_id":"SA_317"},"geometry":{"type":"LineString","coordinates":[[-61.0054,10.7067],[-61.2334,10.6599],[-61.4172,10.6792],[-61.5942,10.6599],[-61.8887,10.6643],[-61.9572,10.6592],[-62.0443,10.6344],[-62.3324,10.6302],[-62.3709,10.643],[-62.4365,10.645],[-62.4842,10.6302],[-62.5559,10.643],[-62.6298,10.6348],[-62.6785,10.64],[-62.7664,10.612],[-62.9334,10.5984],[-62.9835,10.5839],[-63.126,10.574],[-63.1658,10.5915]]}},{"type":"Feature","properties":{"name":"Urica - Sur","slip_type":"Dextral","average_dip":"(90,,)","net_slip_rate":"(0.5,,)","activity_confidence":null,"catalog_id":"SA_318"},"geometry":{"type":"LineString","coordinates":[[-63.9653,9.7409],[-64.0798,9.7851],[-64.1177,9.8111],[-64.2331,9.919],[-64.3707,9.9862]]}},{"type":"Feature","properties":{"name":"San Mateo - Norte","slip_type":"Dextral","average_dip":"(90,,)","net_slip_rate":"(0.8,,)","activity_confidence":null,"catalog_id":"SA_319"},"geometry":{"type":"LineString","coordinates":[[-65.3666,10.5403],[-65.1652,10.4289],[-65.1069,10.3381],[-65.0819,10.3141]]}},{"type":"Feature","properties":{"name":"San Mateo - Sur","slip_type":"Dextral","average_dip":"(90,,)","net_slip_rate":"(0.8,,)","activity_confidence":null,"catalog_id":"SA_320"},"geometry":{"type":"LineString","coordinates":[[-65.0819,10.3141],[-64.8106,10.0524]]}},{"type":"Feature","properties":{"name":"P\u00edritu - Norte","slip_type":"Dextral-Normal","average_dip":"(72.0,,)","net_slip_rate":"(0.35,0.3,0.4)","activity_confidence":null,"catalog_id":"SA_321"},"geometry":{"type":"LineString","coordinates":[[-65.6148,10.2244],[-65.8309,10.317],[-65.9929,10.4147],[-66.0559,10.4713],[-66.1112,10.5369],[-66.1485,10.5999]]}},{"type":"Feature","properties":{"name":"P\u00edritu - Sur","slip_type":"Dextral-Normal","average_dip":"(72.0,,)","net_slip_rate":"(0.35,0.3,0.4)","activity_confidence":null,"catalog_id":"SA_322"},"geometry":{"type":"LineString","coordinates":[[-64.9268,10.0263],[-65.0991,10.0919],[-65.3576,10.1369],[-65.5248,10.1871],[-65.6174,10.2257]]}},{"type":"Feature","properties":{"name":"Tu\u00f1ame - Sur","slip_type":"Normal-Dextral","average_dip":"(72.0,60,80)","net_slip_rate":"(0.3,0.1,0.5)","activity_confidence":null,"catalog_id":"SA_323"},"geometry":{"type":"LineString","coordinates":[[-70.825,8.8289],[-70.7126,8.9699]]}},{"type":"Feature","properties":{"name":"El Reposo - El Reposo","slip_type":"Sinistral-Reverse","average_dip":"(90,,)","net_slip_rate":"(0.3,,)","activity_confidence":null,"catalog_id":"SA_324"},"geometry":{"type":"LineString","coordinates":[[-72.4639,7.7271],[-72.4342,7.6297],[-72.3834,7.5548],[-72.3707,7.5139],[-72.3,7.4023],[-72.1418,7.2949],[-72.0359,7.2342]]}},{"type":"Feature","properties":{"name":"Siquisique - Siquisique","slip_type":"Dextral-Reverse","average_dip":"(90,,)","net_slip_rate":"(0.8,,)","activity_confidence":null,"catalog_id":"SA_325"},"geometry":{"type":"LineString","coordinates":[[-69.1189,10.6458],[-69.1906,10.6246],[-69.3108,10.6064],[-69.6733,10.5923],[-69.7885,10.5802]]}},{"type":"Feature","properties":{"name":"Moroturo - Moroturo","slip_type":"Reverse","average_dip":"(30,,)","net_slip_rate":"(0.3,0.1,0.5)","activity_confidence":null,"catalog_id":"SA_326"},"geometry":{"type":"LineString","coordinates":[[-69.0205,10.6127],[-69.0463,10.6097],[-69.078,10.5832],[-69.1672,10.5736],[-69.2483,10.5478],[-69.2675,10.4947]]}},{"type":"Feature","properties":{"name":"Rio Seco - Este","slip_type":"Dextral-Reverse","average_dip":"(72.0,,)","net_slip_rate":"(0.35,,)","activity_confidence":null,"catalog_id":"SA_327"},"geometry":{"type":"LineString","coordinates":[[-70.724,11.6369],[-70.5204,11.5177],[-70.215,11.3781],[-70.0115,11.2531]]}},{"type":"Feature","properties":{"name":"Rio Seco - Centro","slip_type":"Dextral-Reverse","average_dip":"(72.0,,)","net_slip_rate":"(0.35,,)","activity_confidence":null,"catalog_id":"SA_328"},"geometry":{"type":"LineString","coordinates":[[-71.4277,11.8841],[-71.2358,11.8463],[-71.0351,11.7911],[-70.8839,11.7242],[-70.724,11.6398]]}},{"type":"Feature","properties":{"name":"Rio Seco - Oeste","slip_type":"Dextral-Reverse","average_dip":"(72.0,,)","net_slip_rate":"(0.35,,)","activity_confidence":null,"catalog_id":"SA_329"},"geometry":{"type":"LineString","coordinates":[[-72.2478,11.9655],[-72.0646,11.9597],[-71.5964,11.9132],[-71.4277,11.8841]]}},{"type":"Feature","properties":{"name":"Falla Chucarima","slip_type":"Sinistral-Reverse","average_dip":"(72.0,,)","net_slip_rate":"(0.6,0.2,1.0)","activity_confidence":null,"catalog_id":"SA_391"},"geometry":{"type":"LineString","coordinates":[[-72.2386,6.9007],[-72.1916,6.8705],[-72.1325,6.8485],[-72.0742,6.8042],[-71.963,6.7558],[-71.8852,6.7089],[-71.8553,6.7011],[-71.8081,6.6603],[-71.7744,6.646]]}},{"type":"Feature","properties":{"name":"Falla Chitaga-Pamplona","slip_type":"Sinistral-Reverse","average_dip":"(90,,)","net_slip_rate":"(0.6,0.2,1.0)","activity_confidence":null,"catalog_id":"SA_392"},"geometry":{"type":"LineString","coordinates":[[-72.6307,7.6337],[-72.6401,7.4095],[-72.631,7.3931],[-72.6317,7.3566],[-72.6084,7.297],[-72.5832,7.2858],[-72.5347,7.1734],[-72.4967,7.1134],[-72.3814,7.0],[-72.316,6.9472],[-72.2387,6.9013]]}},{"type":"Feature","properties":{"name":"Santa Marta","slip_type":"Sinistral","average_dip":"(72.0,,)","net_slip_rate":"(5,,)","activity_confidence":null,"catalog_id":"SA_393"},"geometry":{"type":"LineString","coordinates":[[-73.9063,9.9337],[-73.9777,10.206],[-74.081,10.4181],[-74.1122,10.666],[-74.1098,10.7465],[-74.1789,10.9694],[-74.202,11.0058],[-74.2211,11.083]]}},{"type":"Feature","properties":{"name":"Seccion Guaicaramo Norte","slip_type":"Reverse","average_dip":"(37.0,30,45)","net_slip_rate":"(3.0,1,5)","activity_confidence":null,"catalog_id":"SA_394"},"geometry":{"type":"LineString","coordinates":[[-71.9481,6.7466],[-71.9322,6.693],[-71.9196,6.5094],[-71.9489,6.4106],[-72.0643,6.2614],[-72.0936,5.9673],[-72.1938,5.8199],[-72.2935,5.5941],[-72.4689,5.4735],[-72.5225,5.379],[-72.5658,5.3377],[-72.6464,5.2373],[-72.6758,5.2175],[-72.7389,5.1524],[-72.8288,5.0135],[-72.858,4.955],[-72.9006,4.9241],[-72.9511,4.8557],[-73.0065,4.7682],[-73.0082,4.7318],[-73.0252,4.7017],[-73.067,4.6598],[-73.0845,4.6062],[-73.1555,4.5027],[-73.2335,4.4225],[-73.3873,4.3345]]}},{"type":"Feature","properties":{"name":"Bucaramanga","slip_type":"Sinistral-Reverse","average_dip":"(72.0,,)","net_slip_rate":"(3.0,1,5)","activity_confidence":null,"catalog_id":"SA_395"},"geometry":{"type":"LineString","coordinates":[[-72.7475,6.049],[-72.7192,6.2294],[-72.7378,6.3471],[-72.8025,6.5409],[-72.8687,6.6128],[-72.9591,6.768],[-73.0054,6.9144],[-73.12,7.1529],[-73.2989,7.7704]]}},{"type":"Feature","properties":{"name":"Ibague","slip_type":"Dextral","average_dip":"(90.,,)","net_slip_rate":"(3.0,1,5)","activity_confidence":null,"catalog_id":"SA_397"},"geometry":{"type":"LineString","coordinates":[[-74.8399,4.5587],[-74.9192,4.5043],[-75.009,4.476],[-75.2518,4.4196],[-75.4376,4.3397],[-75.5042,4.2865],[-75.5216,4.2542],[-75.5922,4.1988],[-75.608,4.1723],[-75.6431,4.1554],[-75.8253,4.0145]]}},{"type":"Feature","properties":{"name":null,"slip_type":"Subduction_Thrust","average_dip":null,"net_slip_rate":"(20.1,,)","activity_confidence":"1","catalog_id":"PB_1912.0"},"geometry":{"type":"LineString","coordinates":[[-58.157,10.16],[-57.762,10.634]]}},{"type":"Feature","properties":{"name":null,"slip_type":"Subduction_Thrust","average_dip":null,"net_slip_rate":"(19.4,,)","activity_confidence":"1","catalog_id":"PB_1915.0"},"geometry":{"type":"LineString","coordinates":[[-57.424,11.661],[-57.468,12.427]]}},{"type":"Feature","properties":{"name":"Antilles Thrust","slip_type":"Reverse","average_dip":null,"net_slip_rate":null,"activity_confidence":"1","catalog_id":"CA_186.0"},"geometry":{"type":"LineString","coordinates":[[-58.0653,15.0525],[-58.0301,14.9998],[-58.0126,14.9559],[-57.9818,14.9119],[-57.9379,14.868],[-57.7489,14.7582],[-57.6786,14.6659],[-57.6611,14.5956],[-57.6655,14.4989],[-57.6962,14.4418],[-57.7358,14.2704],[-57.7226,14.2441],[-57.7182,14.1167],[-57.7753,13.9497],[-57.7445,13.8047],[-57.6962,13.7256],[-57.6698,13.6641],[-57.6127,13.5762],[-57.582,13.4928],[-57.5688,13.3741],[-57.5776,13.1676],[-57.6171,13.0226],[-57.6259,12.9457],[-57.6039,12.8666],[-57.5183,12.7216],[-57.4985,12.5042],[-57.4765,12.4207],[-57.4699,12.3526],[-57.4633,12.2361],[-57.4787,12.1702],[-57.4831,12.067],[-57.4589,11.9659],[-57.448,11.8649],[-57.4458,11.6957],[-57.4611,11.5661],[-57.4655,11.4255],[-57.4765,11.3728],[-57.56,11.1333],[-57.5886,11.0806],[-57.5995,10.9795],[-57.6523,10.9268],[-57.727,10.7774],[-57.8104,10.6939],[-57.8324,10.6192],[-57.8983,10.5489],[-57.9774,10.4874],[-58.0433,10.4171],[-58.1444,10.237],[-58.2674,10.114],[-58.3553,10.0524]]}}]}